<?xml version="1.0" encoding="UTF-8" standalone="no" ?>
<gpx creator="WTracks"
    xmlns:xsi="http://www.w3.org/2001/XMLSchema-instance" xmlns="http://www.topografix.com/GPX/1/1" version="1.1" xsi:schemaLocation="http://www.topografix.com/GPX/1/1 http://www.topografix.com/GPX/1/1/gpx.xsd">
<metadata>
  <name>Wikiloc - 2025-Jérica Nº4-2) Mucha Pista. Mucho desnivel. A Gaibiel por Novaliches. Ruta larga que se puede acortar por desvío marcado.</name>
  <desc></desc>
  <author><name>WTracks</name></author>
  <link href='https://opoto.github.io/wtracks/'>
    <text>WTracks</text>
    <type>text/html</type>
  </link>
  <time>2026-05-25T19:54:56.326Z</time>
  <bounds minlat="39.900777" minlon="-0.583048" maxlat="39.945076" maxlon="-0.446405"/>
</metadata>
<wpt lat="39.92822" lon="-0.500414"><ele>607.9</ele><time>2025-08-27T08:07:11.060Z</time><name>Biblioteca</name></wpt>
<wpt lat="39.948982" lon="-0.495629"><ele>646.6</ele><time>2025-08-27T08:07:11.060Z</time><name>Desvío cuevas de Gaibiel</name></wpt>
<wpt lat="39.950181" lon="-0.496337"><ele>646.7</ele><time>2025-08-27T08:07:11.060Z</time><name>7% 3,5 Km Agotador</name></wpt>
<wpt lat="39.960606" lon="-0.473608"><ele>843.1</ele><time>2025-08-27T08:07:11.060Z</time><name>Senda alta Gaibiel</name></wpt>
<wpt lat="39.957881" lon="-0.46958"><ele>801.5</ele><time>2025-08-27T08:07:11.060Z</time><name>4 km bajando sin pedalear</name></wpt>
<wpt lat="39.937287" lon="-0.492958"><ele>543</ele><name>Senda de Gaibiel</name></wpt>
<trk>
  <name>2025-Jérica Nº4-2) Mucha Pista. Mucho desnivel. A Gaibiel por Novaliches. Ruta larga que se puede acortar por desvío marcado. - Wikiloc</name>
  <trkseg>
    <trkpt lat="39.912535" lon="-0.572233"><ele>492.851</ele><time>2025-08-27T07:08:22.713Z</time></trkpt>
    <trkpt lat="39.912106" lon="-0.570109"><ele>482.701</ele><time>2025-08-27T07:08:32.713Z</time></trkpt>
    <trkpt lat="39.911917" lon="-0.567985"><ele>480.811</ele><time>2025-08-27T07:08:42.713Z</time></trkpt>
    <trkpt lat="39.911662" lon="-0.566579"><ele>478.909</ele><time>2025-08-27T07:08:52.713Z</time></trkpt>
    <trkpt lat="39.911794" lon="-0.564862"><ele>478.627</ele><time>2025-08-27T07:09:02.713Z</time></trkpt>
    <trkpt lat="39.911357" lon="-0.563457"><ele>473.247</ele><time>2025-08-27T07:09:12.713Z</time></trkpt>
    <trkpt lat="39.9113" lon="-0.56203"><ele>477.563</ele><time>2025-08-27T07:09:22.713Z</time></trkpt>
    <trkpt lat="39.910666" lon="-0.560818"><ele>471.184</ele><time>2025-08-27T07:09:32.713Z</time></trkpt>
    <trkpt lat="39.911045" lon="-0.559766"><ele>481.766</ele><time>2025-08-27T07:09:42.713Z</time></trkpt>
    <trkpt lat="39.911316" lon="-0.559219"><ele>483.835</ele><time>2025-08-27T07:09:52.713Z</time></trkpt>
    <trkpt lat="39.911934" lon="-0.558747"><ele>491.898</ele><time>2025-08-27T07:10:02.713Z</time></trkpt>
    <trkpt lat="39.911645" lon="-0.557621"><ele>498.147</ele><time>2025-08-27T07:10:12.713Z</time></trkpt>
    <trkpt lat="39.913152" lon="-0.554123"><ele>497.361</ele><time>2025-08-27T07:10:22.713Z</time></trkpt>
    <trkpt lat="39.913069" lon="-0.553061"><ele>496.149</ele><time>2025-08-27T07:10:32.713Z</time></trkpt>
    <trkpt lat="39.912839" lon="-0.552492"><ele>492.402</ele><time>2025-08-27T07:10:42.713Z</time></trkpt>
    <trkpt lat="39.912691" lon="-0.551881"><ele>490.822</ele><time>2025-08-27T07:10:52.717Z</time></trkpt>
    <trkpt lat="39.912723" lon="-0.551398"><ele>490.809</ele><time>2025-08-27T07:11:02.717Z</time></trkpt>
    <trkpt lat="39.91367" lon="-0.548522"><ele>485.466</ele><time>2025-08-27T07:11:12.717Z</time></trkpt>
    <trkpt lat="39.913851" lon="-0.547407"><ele>483.846</ele><time>2025-08-27T07:11:22.717Z</time></trkpt>
    <trkpt lat="39.915498" lon="-0.545433"><ele>458.072</ele><time>2025-08-27T07:11:32.717Z</time></trkpt>
    <trkpt lat="39.915793" lon="-0.54481"><ele>456.643</ele><time>2025-08-27T07:11:42.717Z</time></trkpt>
    <trkpt lat="39.916007" lon="-0.543952"><ele>461.055</ele><time>2025-08-27T07:11:52.717Z</time></trkpt>
    <trkpt lat="39.916221" lon="-0.542986"><ele>465.934</ele><time>2025-08-27T07:12:02.717Z</time></trkpt>
    <trkpt lat="39.917011" lon="-0.542514"><ele>469.877</ele><time>2025-08-27T07:12:12.717Z</time></trkpt>
    <trkpt lat="39.918064" lon="-0.542364"><ele>475.076</ele><time>2025-08-27T07:12:22.717Z</time></trkpt>
    <trkpt lat="39.919218" lon="-0.541849"><ele>469.22</ele><time>2025-08-27T07:12:32.717Z</time></trkpt>
    <trkpt lat="39.918837" lon="-0.540862"><ele>455.857</ele><time>2025-08-27T07:12:42.717Z</time></trkpt>
    <trkpt lat="39.918755" lon="-0.54054"><ele>456.6</ele><time>2025-08-27T07:12:52.717Z</time></trkpt>
    <trkpt lat="39.918377" lon="-0.54069"><ele>454.62</ele><time>2025-08-27T07:13:02.717Z</time></trkpt>
    <trkpt lat="39.918706" lon="-0.538974"><ele>467.709</ele><time>2025-08-27T07:13:12.717Z</time></trkpt>
    <trkpt lat="39.919415" lon="-0.537837"><ele>479.517</ele><time>2025-08-27T07:13:22.717Z</time></trkpt>
    <trkpt lat="39.919874" lon="-0.537236"><ele>483.967</ele><time>2025-08-27T07:13:32.717Z</time></trkpt>
    <trkpt lat="39.920944" lon="-0.533727"><ele>502.083</ele><time>2025-08-27T07:13:42.717Z</time></trkpt>
    <trkpt lat="39.921109" lon="-0.531163"><ele>494.494</ele><time>2025-08-27T07:13:52.717Z</time></trkpt>
    <trkpt lat="39.921463" lon="-0.529908"><ele>494.016</ele><time>2025-08-27T07:14:02.717Z</time></trkpt>
    <trkpt lat="39.921121" lon="-0.527569"><ele>495.435</ele><time>2025-08-27T07:14:12.717Z</time></trkpt>
    <trkpt lat="39.920866" lon="-0.526105"><ele>491.278</ele><time>2025-08-27T07:14:22.717Z</time></trkpt>
    <trkpt lat="39.921014" lon="-0.525584"><ele>485.277</ele><time>2025-08-27T07:14:32.717Z</time></trkpt>
    <trkpt lat="39.920315" lon="-0.525096"><ele>489.641</ele><time>2025-08-27T07:14:42.717Z</time></trkpt>
    <trkpt lat="39.919817" lon="-0.524436"><ele>490.699</ele><time>2025-08-27T07:14:52.717Z</time></trkpt>
    <trkpt lat="39.920648" lon="-0.522323"><ele>479.307</ele><time>2025-08-27T07:15:02.717Z</time></trkpt>
    <trkpt lat="39.920973" lon="-0.521695"><ele>480.427</ele><time>2025-08-27T07:15:12.717Z</time></trkpt>
    <trkpt lat="39.920952" lon="-0.521153"><ele>472.509</ele><time>2025-08-27T07:15:22.717Z</time></trkpt>
    <trkpt lat="39.920343" lon="-0.52111"><ele>471.221</ele><time>2025-08-27T07:15:32.717Z</time></trkpt>
    <trkpt lat="39.920315" lon="-0.520912"><ele>466.361</ele><time>2025-08-27T07:15:42.717Z</time></trkpt>
    <trkpt lat="39.921282" lon="-0.520429"><ele>464.277</ele><time>2025-08-27T07:15:52.717Z</time></trkpt>
    <trkpt lat="39.920323" lon="-0.520198"><ele>454.418</ele><time>2025-08-27T07:16:02.717Z</time></trkpt>
    <trkpt lat="39.920508" lon="-0.518852"><ele>464.03</ele><time>2025-08-27T07:16:12.717Z</time></trkpt>
    <trkpt lat="39.921096" lon="-0.517591"><ele>471.489</ele><time>2025-08-27T07:16:22.717Z</time></trkpt>
    <trkpt lat="39.921619" lon="-0.515982"><ele>467.992</ele><time>2025-08-27T07:16:32.717Z</time></trkpt>
    <trkpt lat="39.921701" lon="-0.51434"><ele>475.361</ele><time>2025-08-27T07:16:42.717Z</time></trkpt>
    <trkpt lat="39.921479" lon="-0.513278"><ele>484.785</ele><time>2025-08-27T07:16:52.717Z</time></trkpt>
    <trkpt lat="39.921198" lon="-0.513031"><ele>486.666</ele><time>2025-08-27T07:17:02.717Z</time></trkpt>
    <trkpt lat="39.921931" lon="-0.512667"><ele>497.529</ele><time>2025-08-27T07:17:12.717Z</time></trkpt>
    <trkpt lat="39.924071" lon="-0.512474"><ele>502.321</ele><time>2025-08-27T07:17:22.717Z</time></trkpt>
    <trkpt lat="39.924894" lon="-0.509942"><ele>513.909</ele><time>2025-08-27T07:17:32.717Z</time></trkpt>
    <trkpt lat="39.925173" lon="-0.508794"><ele>518.678</ele><time>2025-08-27T07:17:42.717Z</time></trkpt>
    <trkpt lat="39.925198" lon="-0.507603"><ele>513.678</ele><time>2025-08-27T07:17:52.717Z</time></trkpt>
    <trkpt lat="39.925412" lon="-0.507458"><ele>516.064</ele><time>2025-08-27T07:18:02.717Z</time></trkpt>
    <trkpt lat="39.925725" lon="-0.507748"><ele>517.335</ele><time>2025-08-27T07:18:12.717Z</time></trkpt>
    <trkpt lat="39.925942" lon="-0.508311"><ele>520.377</ele><time>2025-08-27T07:18:22.717Z</time></trkpt>
    <trkpt lat="39.926461" lon="-0.50889"><ele>520.026</ele><time>2025-08-27T07:18:32.717Z</time></trkpt>
    <trkpt lat="39.927189" lon="-0.50925"><ele>517.149</ele><time>2025-08-27T07:18:42.717Z</time></trkpt>
    <trkpt lat="39.927942" lon="-0.509657"><ele>518.728</ele><time>2025-08-27T07:18:52.717Z</time></trkpt>
    <trkpt lat="39.928625" lon="-0.509652"><ele>526.542</ele><time>2025-08-27T07:19:02.717Z</time></trkpt>
    <trkpt lat="39.928785" lon="-0.509346"><ele>528.634</ele><time>2025-08-27T07:19:12.717Z</time></trkpt>
    <trkpt lat="39.928588" lon="-0.509083"><ele>532.455</ele><time>2025-08-27T07:19:22.717Z</time></trkpt>
    <trkpt lat="39.92839" lon="-0.508992"><ele>531.41</ele><time>2025-08-27T07:19:32.717Z</time></trkpt>
    <trkpt lat="39.92839" lon="-0.508735"><ele>533.809</ele><time>2025-08-27T07:19:42.717Z</time></trkpt>
    <trkpt lat="39.928477" lon="-0.508466"><ele>536.365</ele><time>2025-08-27T07:19:52.717Z</time></trkpt>
    <trkpt lat="39.927827" lon="-0.50771"><ele>550.725</ele><time>2025-08-27T07:20:02.717Z</time></trkpt>
    <trkpt lat="39.927526" lon="-0.507624"><ele>550.041</ele><time>2025-08-27T07:20:12.717Z</time></trkpt>
    <trkpt lat="39.92723" lon="-0.507281"><ele>550.282</ele><time>2025-08-27T07:20:22.717Z</time></trkpt>
    <trkpt lat="39.927818" lon="-0.506731"><ele>558.874</ele><time>2025-08-27T07:20:32.717Z</time></trkpt>
    <trkpt lat="39.928271" lon="-0.505993"><ele>567.093</ele><time>2025-08-27T07:20:42.717Z</time></trkpt>
    <trkpt lat="39.928962" lon="-0.505747"><ele>575.616</ele><time>2025-08-27T07:20:52.717Z</time></trkpt>
    <trkpt lat="39.929439" lon="-0.505371"><ele>578.665</ele><time>2025-08-27T07:21:02.717Z</time></trkpt>
    <trkpt lat="39.92983" lon="-0.505194"><ele>580.429</ele><time>2025-08-27T07:21:12.717Z</time></trkpt>
    <trkpt lat="39.930118" lon="-0.505285"><ele>579.521</ele><time>2025-08-27T07:21:22.717Z</time></trkpt>
    <trkpt lat="39.930348" lon="-0.504894"><ele>585.241</ele><time>2025-08-27T07:21:32.717Z</time></trkpt>
    <trkpt lat="39.930176" lon="-0.504475"><ele>588.605</ele><time>2025-08-27T07:21:42.717Z</time></trkpt>
    <trkpt lat="39.930332" lon="-0.503418"><ele>592.809</ele><time>2025-08-27T07:21:52.717Z</time></trkpt>
    <trkpt lat="39.9302" lon="-0.502587"><ele>598.834</ele><time>2025-08-27T07:22:02.717Z</time></trkpt>
    <trkpt lat="39.930213" lon="-0.501927"><ele>602.714</ele><time>2025-08-27T07:22:12.717Z</time></trkpt>
    <trkpt lat="39.929279" lon="-0.50153"><ele>601.94</ele><time>2025-08-27T07:22:22.717Z</time></trkpt>
    <trkpt lat="39.928645" lon="-0.501101"><ele>604.031</ele><time>2025-08-27T07:22:32.717Z</time></trkpt>
    <trkpt lat="39.928579" lon="-0.500726"><ele>605.543</ele><time>2025-08-27T07:22:42.717Z</time></trkpt>
    <trkpt lat="39.928743" lon="-0.500715"><ele>605.872</ele><time>2025-08-27T07:22:52.717Z</time></trkpt>
    <trkpt lat="39.930767" lon="-0.500629"><ele>619.685</ele><time>2025-08-27T07:23:02.717Z</time></trkpt>
    <trkpt lat="39.931508" lon="-0.501144"><ele>624.634</ele><time>2025-08-27T07:23:12.717Z</time></trkpt>
    <trkpt lat="39.932208" lon="-0.50123"><ele>626.148</ele><time>2025-08-27T07:23:22.717Z</time></trkpt>
    <trkpt lat="39.932471" lon="-0.500833"><ele>625.332</ele><time>2025-08-27T07:23:32.717Z</time></trkpt>
    <trkpt lat="39.933072" lon="-0.501015"><ele>627.092</ele><time>2025-08-27T07:23:42.717Z</time></trkpt>
    <trkpt lat="39.933367" lon="-0.500522"><ele>628.811</ele><time>2025-08-27T07:23:52.717Z</time></trkpt>
    <trkpt lat="39.933235" lon="-0.49946"><ele>615.409</ele><time>2025-08-27T07:24:02.717Z</time></trkpt>
    <trkpt lat="39.933606" lon="-0.498923"><ele>613.435</ele><time>2025-08-27T07:24:12.717Z</time></trkpt>
    <trkpt lat="39.934001" lon="-0.49932"><ele>626.755</ele><time>2025-08-27T07:24:22.717Z</time></trkpt>
    <trkpt lat="39.934659" lon="-0.498987"><ele>619.551</ele><time>2025-08-27T07:24:32.717Z</time></trkpt>
    <trkpt lat="39.935449" lon="-0.498848"><ele>629.322</ele><time>2025-08-27T07:24:42.717Z</time></trkpt>
    <trkpt lat="39.935753" lon="-0.498247"><ele>617.314</ele><time>2025-08-27T07:24:52.717Z</time></trkpt>
    <trkpt lat="39.936033" lon="-0.498065"><ele>619.533</ele><time>2025-08-27T07:25:02.717Z</time></trkpt>
    <trkpt lat="39.936675" lon="-0.498043"><ele>628.726</ele><time>2025-08-27T07:25:12.717Z</time></trkpt>
    <trkpt lat="39.937456" lon="-0.498354"><ele>645.585</ele><time>2025-08-27T07:25:22.717Z</time></trkpt>
    <trkpt lat="39.937834" lon="-0.498247"><ele>646.299</ele><time>2025-08-27T07:25:32.717Z</time></trkpt>
    <trkpt lat="39.938287" lon="-0.497196"><ele>631.056</ele><time>2025-08-27T07:25:42.717Z</time></trkpt>
    <trkpt lat="39.938493" lon="-0.496563"><ele>629.759</ele><time>2025-08-27T07:25:52.717Z</time></trkpt>
    <trkpt lat="39.939447" lon="-0.49579"><ele>632.214</ele><time>2025-08-27T07:26:02.717Z</time></trkpt>
    <trkpt lat="39.939751" lon="-0.495855"><ele>634.309</ele><time>2025-08-27T07:26:12.717Z</time></trkpt>
    <trkpt lat="39.940031" lon="-0.496069"><ele>637.257</ele><time>2025-08-27T07:26:22.717Z</time></trkpt>
    <trkpt lat="39.941322" lon="-0.495962"><ele>638.097</ele><time>2025-08-27T07:26:32.717Z</time></trkpt>
    <trkpt lat="39.942301" lon="-0.496391"><ele>652.823</ele><time>2025-08-27T07:26:42.717Z</time></trkpt>
    <trkpt lat="39.943042" lon="-0.496874"><ele>655.134</ele><time>2025-08-27T07:26:52.717Z</time></trkpt>
    <trkpt lat="39.943454" lon="-0.497582"><ele>661.956</ele><time>2025-08-27T07:27:02.717Z</time></trkpt>
    <trkpt lat="39.943757" lon="-0.497764"><ele>656.885</ele><time>2025-08-27T07:27:12.717Z</time></trkpt>
    <trkpt lat="39.944193" lon="-0.497464"><ele>647.838</ele><time>2025-08-27T07:27:22.717Z</time></trkpt>
    <trkpt lat="39.944408" lon="-0.497625"><ele>647.977</ele><time>2025-08-27T07:27:32.717Z</time></trkpt>
    <trkpt lat="39.945476" lon="-0.497185"><ele>638.081</ele><time>2025-08-27T07:27:42.717Z</time></trkpt>
    <trkpt lat="39.945612" lon="-0.496767"><ele>628.562</ele><time>2025-08-27T07:27:52.717Z</time></trkpt>
    <trkpt lat="39.945925" lon="-0.496659"><ele>627.883</ele><time>2025-08-27T07:28:02.717Z</time></trkpt>
    <trkpt lat="39.946514" lon="-0.496788"><ele>629.411</ele><time>2025-08-27T07:28:12.717Z</time></trkpt>
    <trkpt lat="39.946957" lon="-0.496868"><ele>626.709</ele><time>2025-08-27T07:28:22.717Z</time></trkpt>
    <trkpt lat="39.94731" lon="-0.496691"><ele>621.988</ele><time>2025-08-27T07:28:32.717Z</time></trkpt>
    <trkpt lat="39.947463" lon="-0.496332"><ele>624.528</ele><time>2025-08-27T07:28:42.717Z</time></trkpt>
    <trkpt lat="39.94796" lon="-0.496005"><ele>629.314</ele><time>2025-08-27T07:28:52.717Z</time></trkpt>
    <trkpt lat="39.948516" lon="-0.496042"><ele>636.745</ele><time>2025-08-27T07:29:02.717Z</time></trkpt>
    <trkpt lat="39.948883" lon="-0.495672"><ele>644.037</ele><time>2025-08-27T07:29:12.717Z</time></trkpt>
    <trkpt lat="39.949656" lon="-0.49638"><ele>644.776</ele><time>2025-08-27T07:29:22.717Z</time></trkpt>
    <trkpt lat="39.950444" lon="-0.496101"><ele>649.079</ele><time>2025-08-27T07:29:32.717Z</time></trkpt>
    <trkpt lat="39.951053" lon="-0.4952"><ele>658.458</ele><time>2025-08-27T07:29:42.717Z</time></trkpt>
    <trkpt lat="39.951349" lon="-0.494707"><ele>665.152</ele><time>2025-08-27T07:29:52.717Z</time></trkpt>
    <trkpt lat="39.952015" lon="-0.494653"><ele>667.548</ele><time>2025-08-27T07:30:02.717Z</time></trkpt>
    <trkpt lat="39.952714" lon="-0.495189"><ele>662.861</ele><time>2025-08-27T07:30:12.717Z</time></trkpt>
    <trkpt lat="39.953108" lon="-0.495114"><ele>665.117</ele><time>2025-08-27T07:30:22.717Z</time></trkpt>
    <trkpt lat="39.953142" lon="-0.493945"><ele>664.209</ele><time>2025-08-27T07:30:32.717Z</time></trkpt>
    <trkpt lat="39.952804" lon="-0.492486"><ele>665.096</ele><time>2025-08-27T07:30:42.717Z</time></trkpt>
    <trkpt lat="39.953405" lon="-0.491316"><ele>674.766</ele><time>2025-08-27T07:30:52.717Z</time></trkpt>
    <trkpt lat="39.954096" lon="-0.490286"><ele>685.912</ele><time>2025-08-27T07:31:02.717Z</time></trkpt>
    <trkpt lat="39.95417" lon="-0.488527"><ele>695.233</ele><time>2025-08-27T07:31:12.717Z</time></trkpt>
    <trkpt lat="39.954671" lon="-0.485201"><ele>714.425</ele><time>2025-08-27T07:31:22.717Z</time></trkpt>
    <trkpt lat="39.95542" lon="-0.486381"><ele>721.114</ele><time>2025-08-27T07:31:32.717Z</time></trkpt>
    <trkpt lat="39.956415" lon="-0.487068"><ele>728.977</ele><time>2025-08-27T07:31:42.717Z</time></trkpt>
    <trkpt lat="39.956966" lon="-0.486617"><ele>740.286</ele><time>2025-08-27T07:31:52.717Z</time></trkpt>
    <trkpt lat="39.958932" lon="-0.486982"><ele>752.55</ele><time>2025-08-27T07:32:02.717Z</time></trkpt>
    <trkpt lat="39.959187" lon="-0.48813"><ele>760.315</ele><time>2025-08-27T07:32:12.717Z</time></trkpt>
    <trkpt lat="39.959622" lon="-0.488967"><ele>763.665</ele><time>2025-08-27T07:32:22.717Z</time></trkpt>
    <trkpt lat="39.959441" lon="-0.489578"><ele>777.611</ele><time>2025-08-27T07:32:32.717Z</time></trkpt>
    <trkpt lat="39.959738" lon="-0.490501"><ele>782.909</ele><time>2025-08-27T07:32:42.717Z</time></trkpt>
    <trkpt lat="39.959499" lon="-0.491252"><ele>786.653</ele><time>2025-08-27T07:32:52.717Z</time></trkpt>
    <trkpt lat="39.959902" lon="-0.492218"><ele>796.573</ele><time>2025-08-27T07:33:02.717Z</time></trkpt>
    <trkpt lat="39.959771" lon="-0.493784"><ele>796.059</ele><time>2025-08-27T07:33:12.717Z</time></trkpt>
    <trkpt lat="39.960905" lon="-0.494964"><ele>817.55</ele><time>2025-08-27T07:33:22.717Z</time></trkpt>
    <trkpt lat="39.962041" lon="-0.495651"><ele>817.832</ele><time>2025-08-27T07:33:32.717Z</time></trkpt>
    <trkpt lat="39.963677" lon="-0.495329"><ele>834.631</ele><time>2025-08-27T07:33:42.717Z</time></trkpt>
    <trkpt lat="39.96497" lon="-0.494192"><ele>856.144</ele><time>2025-08-27T07:33:52.717Z</time></trkpt>
    <trkpt lat="39.964318" lon="-0.493129"><ele>869.273</ele><time>2025-08-27T07:34:02.717Z</time></trkpt>
    <trkpt lat="39.964377" lon="-0.492454"><ele>873.197</ele><time>2025-08-27T07:34:12.717Z</time></trkpt>
    <trkpt lat="39.964696" lon="-0.491606"><ele>869.746</ele><time>2025-08-27T07:34:22.717Z</time></trkpt>
    <trkpt lat="39.965231" lon="-0.491263"><ele>862.388</ele><time>2025-08-27T07:34:32.717Z</time></trkpt>
    <trkpt lat="39.965872" lon="-0.489922"><ele>848.616</ele><time>2025-08-27T07:34:42.717Z</time></trkpt>
    <trkpt lat="39.966719" lon="-0.488377"><ele>855.409</ele><time>2025-08-27T07:34:52.717Z</time></trkpt>
    <trkpt lat="39.966979" lon="-0.486982"><ele>860.716</ele><time>2025-08-27T07:35:02.717Z</time></trkpt>
    <trkpt lat="39.966111" lon="-0.486188"><ele>867.896</ele><time>2025-08-27T07:35:12.717Z</time></trkpt>
    <trkpt lat="39.96514" lon="-0.484182"><ele>850.912</ele><time>2025-08-27T07:35:22.717Z</time></trkpt>
    <trkpt lat="39.964737" lon="-0.482787"><ele>846.843</ele><time>2025-08-27T07:35:32.717Z</time></trkpt>
    <trkpt lat="39.964096" lon="-0.481081"><ele>856.365</ele><time>2025-08-27T07:35:42.717Z</time></trkpt>
    <trkpt lat="39.963672" lon="-0.478764"><ele>867.464</ele><time>2025-08-27T07:35:52.717Z</time></trkpt>
    <trkpt lat="39.962912" lon="-0.477422"><ele>870.397</ele><time>2025-08-27T07:36:02.717Z</time></trkpt>
    <trkpt lat="39.96232" lon="-0.476017"><ele>869.166</ele><time>2025-08-27T07:36:12.717Z</time></trkpt>
    <trkpt lat="39.961761" lon="-0.475856"><ele>871.08</ele><time>2025-08-27T07:36:22.717Z</time></trkpt>
    <trkpt lat="39.96093" lon="-0.474118"><ele>853.419</ele><time>2025-08-27T07:36:32.717Z</time></trkpt>
    <trkpt lat="39.960765" lon="-0.47402"><ele>850.609</ele><time>2025-08-01T22:09:06.168Z</time></trkpt>
    <trkpt lat="39.96057" lon="-0.47378"><ele>843.619</ele><time>2025-08-01T22:09:09.947Z</time></trkpt>
    <trkpt lat="39.96055" lon="-0.473409"><ele>841.009</ele><time>2025-08-01T22:09:13.732Z</time></trkpt>
    <trkpt lat="39.96053" lon="-0.47304"><ele>838.943</ele><time>2025-08-01T22:09:17.523Z</time></trkpt>
    <trkpt lat="39.960447" lon="-0.472723"><ele>834.883</ele><time>2025-08-01T22:09:21.319Z</time></trkpt>
    <trkpt lat="39.960363" lon="-0.472405"><ele>830.369</ele><time>2025-08-01T22:09:25.120Z</time></trkpt>
    <trkpt lat="39.96028" lon="-0.47209"><ele>827.18</ele><time>2025-08-01T22:09:28.926Z</time></trkpt>
    <trkpt lat="39.960155" lon="-0.471895"><ele>824.232</ele><time>2025-08-01T22:09:32.736Z</time></trkpt>
    <trkpt lat="39.96003" lon="-0.4717"><ele>821.781</ele><time>2025-08-01T22:09:36.550Z</time></trkpt>
    <trkpt lat="39.959865" lon="-0.4714"><ele>822.344</ele><time>2025-08-01T22:09:40.370Z</time></trkpt>
    <trkpt lat="39.9597" lon="-0.4711"><ele>826.043</ele><time>2025-08-01T22:09:44.195Z</time></trkpt>
    <trkpt lat="39.95959" lon="-0.47139"><ele>809.967</ele><time>2025-08-01T22:09:48.025Z</time></trkpt>
    <trkpt lat="39.95942" lon="-0.471165"><ele>808.174</ele><time>2025-08-01T22:09:51.860Z</time></trkpt>
    <trkpt lat="39.95925" lon="-0.47094"><ele>807.556</ele><time>2025-08-01T22:09:55.700Z</time></trkpt>
    <trkpt lat="39.95908" lon="-0.470676"><ele>807.721</ele><time>2025-08-01T22:09:59.545Z</time></trkpt>
    <trkpt lat="39.95891" lon="-0.470413"><ele>807.109</ele><time>2025-08-01T22:10:03.396Z</time></trkpt>
    <trkpt lat="39.95874" lon="-0.47015"><ele>808.089</ele><time>2025-08-01T22:10:07.252Z</time></trkpt>
    <trkpt lat="39.95855" lon="-0.47002"><ele>804.419</ele><time>2025-08-01T22:10:11.112Z</time></trkpt>
    <trkpt lat="39.95836" lon="-0.46989"><ele>801.465</ele><time>2025-08-01T22:10:14.976Z</time></trkpt>
    <trkpt lat="39.95807" lon="-0.469848"><ele>799.736</ele><time>2025-08-27T07:39:52.717Z</time></trkpt>
    <trkpt lat="39.957898" lon="-0.47017"><ele>794.538</ele><time>2025-08-27T07:40:02.717Z</time></trkpt>
    <trkpt lat="39.957709" lon="-0.469902"><ele>793.587</ele><time>2025-08-27T07:40:12.717Z</time></trkpt>
    <trkpt lat="39.957141" lon="-0.46841"><ele>799.99</ele><time>2025-08-27T07:40:22.717Z</time></trkpt>
    <trkpt lat="39.956861" lon="-0.46826"><ele>796.959</ele><time>2025-08-27T07:40:32.717Z</time></trkpt>
    <trkpt lat="39.956499" lon="-0.46855"><ele>791.143</ele><time>2025-08-27T07:40:42.717Z</time></trkpt>
    <trkpt lat="39.956236" lon="-0.468088"><ele>798.596</ele><time>2025-08-27T07:40:52.717Z</time></trkpt>
    <trkpt lat="39.956186" lon="-0.468059"><ele>799.031</ele><time>2025-08-27T07:41:02.717Z</time></trkpt>
    <trkpt lat="39.955708" lon="-0.468829"><ele>801</ele></trkpt>
    <trkpt lat="39.955725" lon="-0.469519"><ele>769.124</ele><time>2025-08-27T07:41:12.717Z</time></trkpt>
    <trkpt lat="39.95487" lon="-0.470463"><ele>756.709</ele><time>2025-08-27T07:41:22.717Z</time></trkpt>
    <trkpt lat="39.955199" lon="-0.471342"><ele>729.181</ele><time>2025-08-27T07:41:32.717Z</time></trkpt>
    <trkpt lat="39.954524" lon="-0.472755"><ele>697</ele></trkpt>
    <trkpt lat="39.953981" lon="-0.473038"><ele>698.661</ele><time>2025-08-27T07:41:42.717Z</time></trkpt>
    <trkpt lat="39.954129" lon="-0.473356"><ele>671</ele></trkpt>
    <trkpt lat="39.953817" lon="-0.474025"><ele>681.917</ele><time>2025-08-27T07:41:52.717Z</time></trkpt>
    <trkpt lat="39.953343" lon="-0.473362"><ele>677.898</ele><time>2025-08-27T07:42:02.717Z</time></trkpt>
    <trkpt lat="39.952829" lon="-0.47421"><ele>665.88</ele><time>2025-08-27T07:42:12.717Z</time></trkpt>
    <trkpt lat="39.951924" lon="-0.474881"><ele>651.959</ele><time>2025-08-27T07:42:22.717Z</time></trkpt>
    <trkpt lat="39.95104" lon="-0.474795"><ele>640.842</ele><time>2025-08-27T07:42:32.717Z</time></trkpt>
    <trkpt lat="39.950349" lon="-0.47451"><ele>639.641</ele><time>2025-08-27T07:42:42.717Z</time></trkpt>
    <trkpt lat="39.949769" lon="-0.474505"><ele>637.675</ele><time>2025-08-27T07:42:52.717Z</time></trkpt>
    <trkpt lat="39.949415" lon="-0.47428"><ele>638.426</ele><time>2025-08-27T07:43:02.717Z</time></trkpt>
    <trkpt lat="39.949267" lon="-0.474618"><ele>639.847</ele><time>2025-08-27T07:43:12.717Z</time></trkpt>
    <trkpt lat="39.948783" lon="-0.475523"><ele>635</ele></trkpt>
    <trkpt lat="39.948141" lon="-0.475888"><ele>619</ele></trkpt>
    <trkpt lat="39.947796" lon="-0.476596"><ele>619</ele></trkpt>
    <trkpt lat="39.947171" lon="-0.476725"><ele>621</ele></trkpt>
    <trkpt lat="39.946694" lon="-0.477691"><ele>622.311</ele><time>2025-08-27T07:43:22.717Z</time></trkpt>
    <trkpt lat="39.945278" lon="-0.481296"><ele>600.309</ele><time>2025-08-27T07:43:32.717Z</time></trkpt>
    <trkpt lat="39.945707" lon="-0.481596"><ele>593</ele></trkpt>
    <trkpt lat="39.946324" lon="-0.481345"><ele>589.554</ele><time>2025-08-27T07:43:42.717Z</time></trkpt>
    <trkpt lat="39.94639" lon="-0.481946"><ele>581.034</ele><time>2025-08-27T07:43:52.717Z</time></trkpt>
    <trkpt lat="39.945476" lon="-0.482626"><ele>571</ele></trkpt>
    <trkpt lat="39.944489" lon="-0.482605"><ele>562</ele></trkpt>
    <trkpt lat="39.944177" lon="-0.482025"><ele>567</ele><time>2025-08-27T07:44:02.717Z</time></trkpt>
    <trkpt lat="39.943593" lon="-0.481903"><ele>562.111</ele><time>2025-08-27T07:44:12.717Z</time></trkpt>
    <trkpt lat="39.943231" lon="-0.48053"><ele>564.563</ele><time>2025-08-27T07:44:22.717Z</time></trkpt>
    <trkpt lat="39.942696" lon="-0.480609"><ele>566</ele></trkpt>
    <trkpt lat="39.942318" lon="-0.481789"><ele>565</ele></trkpt>
    <trkpt lat="39.942013" lon="-0.481989"><ele>565.872</ele><time>2025-08-27T07:44:32.717Z</time></trkpt>
    <trkpt lat="39.941388" lon="-0.480572"><ele>566.945</ele><time>2025-08-27T07:44:42.717Z</time></trkpt>
    <trkpt lat="39.940493" lon="-0.479901"><ele>561.444</ele><time>2025-08-27T07:44:52.717Z</time></trkpt>
    <trkpt lat="39.94041" lon="-0.477133"><ele>558.378</ele><time>2025-08-27T07:45:02.717Z</time></trkpt>
    <trkpt lat="39.938204" lon="-0.476189"><ele>547.463</ele><time>2025-08-27T07:45:12.717Z</time></trkpt>
    <trkpt lat="39.938435" lon="-0.478249"><ele>546.444</ele><time>2025-08-27T07:45:22.717Z</time></trkpt>
    <trkpt lat="39.937834" lon="-0.480266"><ele>542.018</ele><time>2025-08-27T07:45:32.717Z</time></trkpt>
    <trkpt lat="39.937847" lon="-0.483334"><ele>540.309</ele><time>2025-08-27T07:45:42.717Z</time></trkpt>
    <trkpt lat="39.938896" lon="-0.485351"><ele>553</ele><time>2025-08-27T07:45:52.717Z</time></trkpt>
    <trkpt lat="39.939554" lon="-0.487325"><ele>540</ele></trkpt>
    <trkpt lat="39.94013" lon="-0.488076"><ele>538</ele><time>2025-08-27T07:46:02.717Z</time></trkpt>
    <trkpt lat="39.940148" lon="-0.489728"><ele>547.884</ele><time>2025-08-27T07:46:22.717Z</time></trkpt>
    <trkpt lat="39.939143" lon="-0.490415"><ele>537.245</ele><time>2025-08-27T07:46:32.717Z</time></trkpt>
    <trkpt lat="39.938782" lon="-0.491574"><ele>543.057</ele><time>2025-08-27T07:46:42.717Z</time></trkpt>
    <trkpt lat="39.938394" lon="-0.491402"><ele>535.986</ele><time>2025-08-27T07:46:52.717Z</time></trkpt>
    <trkpt lat="39.937695" lon="-0.493076"><ele>549.339</ele><time>2025-08-27T07:47:02.717Z</time></trkpt>
    <trkpt lat="39.937127" lon="-0.49284"><ele>536.338</ele><time>2025-08-27T07:47:12.717Z</time></trkpt>
    <trkpt lat="39.936693" lon="-0.493226"><ele>539.652</ele><time>2025-08-27T07:47:22.717Z</time></trkpt>
    <trkpt lat="39.936083" lon="-0.492593"><ele>536.643</ele><time>2025-08-27T07:47:32.717Z</time></trkpt>
    <trkpt lat="39.93577" lon="-0.492443"><ele>532.364</ele><time>2025-08-27T07:47:42.717Z</time></trkpt>
    <trkpt lat="39.935572" lon="-0.492663"><ele>533.61</ele><time>2025-08-27T07:47:52.717Z</time></trkpt>
    <trkpt lat="39.935165" lon="-0.492319"><ele>533.509</ele><time>2025-08-27T07:48:02.717Z</time></trkpt>
    <trkpt lat="39.934449" lon="-0.492303"><ele>532.266</ele><time>2025-08-27T07:48:12.717Z</time></trkpt>
    <trkpt lat="39.933318" lon="-0.492437"><ele>534.636</ele><time>2025-08-27T07:48:22.717Z</time></trkpt>
    <trkpt lat="39.932487" lon="-0.492175"><ele>536.272</ele><time>2025-08-27T07:48:32.717Z</time></trkpt>
    <trkpt lat="39.931986" lon="-0.491568"><ele>537.933</ele><time>2025-08-27T07:48:42.717Z</time></trkpt>
    <trkpt lat="39.9318" lon="-0.490973"><ele>528.765</ele><time>2025-08-27T07:48:52.717Z</time></trkpt>
    <trkpt lat="39.931525" lon="-0.490694"><ele>527.364</ele><time>2025-08-27T07:49:02.717Z</time></trkpt>
    <trkpt lat="39.931188" lon="-0.490614"><ele>525.617</ele><time>2025-08-27T07:49:12.717Z</time></trkpt>
    <trkpt lat="39.930887" lon="-0.490603"><ele>520.656</ele><time>2025-08-27T07:49:22.717Z</time></trkpt>
    <trkpt lat="39.930624" lon="-0.490764"><ele>517.37</ele><time>2025-08-27T07:49:32.717Z</time></trkpt>
    <trkpt lat="39.930587" lon="-0.491831"><ele>529.612</ele><time>2025-08-27T07:49:42.717Z</time></trkpt>
    <trkpt lat="39.929912" lon="-0.492271"><ele>524.032</ele><time>2025-08-27T07:49:52.717Z</time></trkpt>
    <trkpt lat="39.92918" lon="-0.492175"><ele>515.605</ele><time>2025-08-27T07:50:02.717Z</time></trkpt>
    <trkpt lat="39.928802" lon="-0.492647"><ele>516.609</ele><time>2025-08-27T07:50:12.717Z</time></trkpt>
    <trkpt lat="39.92825" lon="-0.493172"><ele>515.313</ele><time>2025-08-27T07:50:22.717Z</time></trkpt>
    <trkpt lat="39.928316" lon="-0.493516"><ele>516.933</ele><time>2025-08-27T07:50:32.717Z</time></trkpt>
    <trkpt lat="39.928168" lon="-0.493698"><ele>516.659</ele><time>2025-08-27T07:50:42.717Z</time></trkpt>
    <trkpt lat="39.927822" lon="-0.493762"><ele>515.84</ele><time>2025-08-27T07:50:52.717Z</time></trkpt>
    <trkpt lat="39.927156" lon="-0.493687"><ele>516.652</ele><time>2025-08-27T07:51:02.717Z</time></trkpt>
    <trkpt lat="39.926777" lon="-0.493752"><ele>516.141</ele><time>2025-08-27T07:51:12.717Z</time></trkpt>
    <trkpt lat="39.926522" lon="-0.493044"><ele>506.984</ele><time>2025-08-27T07:51:22.717Z</time></trkpt>
    <trkpt lat="39.925691" lon="-0.493484"><ele>503.063</ele><time>2025-08-27T07:51:32.718Z</time></trkpt>
    <trkpt lat="39.925477" lon="-0.494288"><ele>501.727</ele><time>2025-08-27T07:51:42.718Z</time></trkpt>
    <trkpt lat="39.925502" lon="-0.495404"><ele>508.512</ele><time>2025-08-27T07:51:52.718Z</time></trkpt>
    <trkpt lat="39.925049" lon="-0.497003"><ele>515.632</ele><time>2025-08-27T07:52:02.718Z</time></trkpt>
    <trkpt lat="39.92356" lon="-0.49799"><ele>513.705</ele><time>2025-08-27T07:52:12.718Z</time></trkpt>
    <trkpt lat="39.922951" lon="-0.498955"><ele>516.109</ele><time>2025-08-27T07:52:22.718Z</time></trkpt>
    <trkpt lat="39.923034" lon="-0.499706"><ele>513.613</ele><time>2025-08-27T07:52:32.718Z</time></trkpt>
    <trkpt lat="39.923444" lon="-0.500457"><ele>524.293</ele><time>2025-08-27T07:52:42.718Z</time></trkpt>
    <trkpt lat="39.92356" lon="-0.501916"><ele>514.349</ele><time>2025-08-27T07:52:52.718Z</time></trkpt>
    <trkpt lat="39.923709" lon="-0.502946"><ele>513.53</ele><time>2025-08-27T07:53:02.718Z</time></trkpt>
    <trkpt lat="39.924284" lon="-0.503912"><ele>516.912</ele><time>2025-08-27T07:53:12.718Z</time></trkpt>
    <trkpt lat="39.924498" lon="-0.505972"><ele>510.851</ele><time>2025-08-27T07:53:22.718Z</time></trkpt>
    <trkpt lat="39.925156" lon="-0.507259"><ele>513.794</ele><time>2025-08-27T07:53:32.718Z</time></trkpt>
    <trkpt lat="39.925109" lon="-0.507431"><ele>512.793</ele><time>2025-08-27T07:53:42.718Z</time></trkpt>
    <trkpt lat="39.92501" lon="-0.50947"><ele>516.787</ele><time>2025-08-27T07:53:52.718Z</time></trkpt>
    <trkpt lat="39.92422" lon="-0.512173"><ele>505.819</ele><time>2025-08-27T07:54:02.718Z</time></trkpt>
    <trkpt lat="39.923775" lon="-0.512688"><ele>504.509</ele><time>2025-08-27T07:54:12.718Z</time></trkpt>
    <trkpt lat="39.922887" lon="-0.512602"><ele>500.019</ele><time>2025-08-27T07:54:22.718Z</time></trkpt>
    <trkpt lat="39.921998" lon="-0.512645"><ele>497.209</ele><time>2025-08-27T07:54:32.718Z</time></trkpt>
    <trkpt lat="39.921191" lon="-0.512967"><ele>488.333</ele><time>2025-08-27T07:54:42.718Z</time></trkpt>
    <trkpt lat="39.92027" lon="-0.512881"><ele>486.933</ele><time>2025-08-27T07:54:52.718Z</time></trkpt>
    <trkpt lat="39.918542" lon="-0.516336"><ele>470.739</ele><time>2025-08-27T07:55:02.718Z</time></trkpt>
    <trkpt lat="39.917142" lon="-0.516872"><ele>465.73</ele><time>2025-08-27T07:55:12.718Z</time></trkpt>
    <trkpt lat="39.915793" lon="-0.518031"><ele>450.292</ele><time>2025-08-27T07:55:22.718Z</time></trkpt>
    <trkpt lat="39.915349" lon="-0.518267"><ele>448.211</ele><time>2025-08-27T07:55:32.718Z</time></trkpt>
    <trkpt lat="39.915218" lon="-0.518847"><ele>454.994</ele><time>2025-08-27T07:55:42.718Z</time></trkpt>
    <trkpt lat="39.914246" lon="-0.518138"><ele>444.863</ele><time>2025-08-27T07:55:52.718Z</time></trkpt>
    <trkpt lat="39.913604" lon="-0.51743"><ele>441.537</ele><time>2025-08-27T07:56:02.718Z</time></trkpt>
    <trkpt lat="39.909506" lon="-0.519104"><ele>448.482</ele><time>2025-08-27T07:56:12.718Z</time></trkpt>
    <trkpt lat="39.907498" lon="-0.519619"><ele>455.043</ele><time>2025-08-27T07:56:22.718Z</time></trkpt>
    <trkpt lat="39.906873" lon="-0.520456"><ele>452.417</ele><time>2025-08-27T07:56:32.718Z</time></trkpt>
    <trkpt lat="39.903283" lon="-0.522516"><ele>443.709</ele><time>2025-08-27T07:56:42.718Z</time></trkpt>
    <trkpt lat="39.898904" lon="-0.525241"><ele>426.12</ele><time>2025-08-27T07:56:52.718Z</time></trkpt>
    <trkpt lat="39.898394" lon="-0.525949"><ele>422.32</ele><time>2025-08-27T07:57:02.718Z</time></trkpt>
    <trkpt lat="39.898723" lon="-0.526507"><ele>425.666</ele><time>2025-08-27T07:57:12.718Z</time></trkpt>
    <trkpt lat="39.900057" lon="-0.527065"><ele>437.147</ele><time>2025-08-27T07:57:22.718Z</time></trkpt>
    <trkpt lat="39.903679" lon="-0.526164"><ele>442.119</ele><time>2025-08-27T07:57:32.718Z</time></trkpt>
    <trkpt lat="39.905309" lon="-0.527687"><ele>439.118</ele><time>2025-08-27T07:57:42.718Z</time></trkpt>
    <trkpt lat="39.909195" lon="-0.531979"><ele>426.351</ele><time>2025-08-27T07:57:52.718Z</time></trkpt>
    <trkpt lat="39.910084" lon="-0.533502"><ele>437.69</ele><time>2025-08-27T07:58:02.718Z</time></trkpt>
    <trkpt lat="39.910479" lon="-0.536206"><ele>449.824</ele><time>2025-08-27T07:58:12.718Z</time></trkpt>
    <trkpt lat="39.910034" lon="-0.537665"><ele>453.469</ele><time>2025-08-27T07:58:22.718Z</time></trkpt>
    <trkpt lat="39.909985" lon="-0.538673"><ele>455.804</ele><time>2025-08-27T07:58:32.718Z</time></trkpt>
    <trkpt lat="39.911104" lon="-0.541956"><ele>467.324</ele><time>2025-08-27T07:58:42.718Z</time></trkpt>
    <trkpt lat="39.911779" lon="-0.543802"><ele>475.109</ele><time>2025-08-27T07:58:52.718Z</time></trkpt>
    <trkpt lat="39.911606" lon="-0.545566"><ele>481.618</ele><time>2025-08-27T07:59:02.718Z</time></trkpt>
    <trkpt lat="39.911195" lon="-0.54666"><ele>480.968</ele><time>2025-08-27T07:59:12.718Z</time></trkpt>
    <trkpt lat="39.910816" lon="-0.548591"><ele>479.144</ele><time>2025-08-27T07:59:22.718Z</time></trkpt>
    <trkpt lat="39.910981" lon="-0.549342"><ele>481.565</ele><time>2025-08-27T07:59:32.718Z</time></trkpt>
    <trkpt lat="39.912331" lon="-0.550801"><ele>486.597</ele><time>2025-08-27T07:59:42.718Z</time></trkpt>
    <trkpt lat="39.912775" lon="-0.551381"><ele>490.956</ele><time>2025-08-27T07:59:52.718Z</time></trkpt>
    <trkpt lat="39.912808" lon="-0.552282"><ele>491.329</ele><time>2025-08-27T08:00:02.718Z</time></trkpt>
    <trkpt lat="39.913071" lon="-0.553054"><ele>496.158</ele><time>2025-08-27T08:00:12.718Z</time></trkpt>
    <trkpt lat="39.913121" lon="-0.553977"><ele>496.672</ele><time>2025-08-27T08:00:22.718Z</time></trkpt>
    <trkpt lat="39.912808" lon="-0.554921"><ele>495.938</ele><time>2025-08-27T08:00:32.718Z</time></trkpt>
    <trkpt lat="39.911639" lon="-0.557582"><ele>498.77</ele><time>2025-08-27T08:00:42.718Z</time></trkpt>
    <trkpt lat="39.911985" lon="-0.558698"><ele>492.317</ele><time>2025-08-27T08:00:52.718Z</time></trkpt>
    <trkpt lat="39.911228" lon="-0.559277"><ele>482.309</ele><time>2025-08-27T08:01:02.718Z</time></trkpt>
    <trkpt lat="39.910717" lon="-0.56065"><ele>473.085</ele><time>2025-08-27T08:01:12.718Z</time></trkpt>
    <trkpt lat="39.910943" lon="-0.561367"><ele>472.645</ele><time>2025-08-27T08:01:22.718Z</time></trkpt>
    <trkpt lat="39.911272" lon="-0.562043"><ele>477.031</ele><time>2025-08-27T08:01:32.718Z</time></trkpt>
    <trkpt lat="39.911342" lon="-0.563457"><ele>473.092</ele><time>2025-08-27T08:01:42.718Z</time></trkpt>
    <trkpt lat="39.91177" lon="-0.56482"><ele>478.374</ele><time>2025-08-27T08:01:52.718Z</time></trkpt>
    <trkpt lat="39.91163" lon="-0.566665"><ele>478.323</ele><time>2025-08-27T08:02:02.718Z</time></trkpt>
    <trkpt lat="39.912017" lon="-0.56939"><ele>481.576</ele><time>2025-08-27T08:02:12.718Z</time></trkpt>
    <trkpt lat="39.912568" lon="-0.572244"><ele>492.785</ele><time>2025-08-27T08:02:22.718Z</time></trkpt>
  </trkseg>
</trk></gpx>
