<?xml version="1.0" encoding="UTF-8" standalone="no" ?>
<gpx creator="WTracks"
    xmlns:xsi="http://www.w3.org/2001/XMLSchema-instance" xmlns="http://www.topografix.com/GPX/1/1" version="1.1" xsi:schemaLocation="http://www.topografix.com/GPX/1/1 http://www.topografix.com/GPX/1/1/gpx.xsd">
<metadata>
  <name>Wikiloc - 2025- Jérica Nº5-4. Vía Verde+Martinete+ Bajadas zona Altomira+ Los Ángeles.</name>
  <desc></desc>
  <author><name>WTracks</name></author>
  <link href='https://opoto.github.io/wtracks/'>
    <text>WTracks</text>
    <type>text/html</type>
  </link>
  <time>2026-05-25T20:48:03.045Z</time>
  <bounds minlat="39.864228" minlon="-0.600214" maxlat="39.908551" maxlon="-0.463572"/>
</metadata>
<wpt lat="39.885144" lon="-0.544252"><ele>466</ele><time>2024-05-01T08:40:31.893Z</time><name>Toboganes Navajas</name></wpt>
<wpt lat="39.875921" lon="-0.551763"><ele>553</ele><time>2024-05-01T08:40:31.893Z</time><name>Subida Renfe</name></wpt>
<wpt lat="39.874505" lon="-0.547514"><ele>614</ele><time>2024-05-01T08:40:31.893Z</time><name>Bajada Triatlón</name></wpt>
<wpt lat="39.882179" lon="-0.535476"><ele>453</ele><time>2024-05-01T08:40:31.893Z</time><name>Circuito Copa Mundial</name></wpt>
<wpt lat="39.8846" lon="-0.530005"><ele>433</ele><time>2024-05-01T08:40:31.893Z</time><name>Subida Martinete</name></wpt>
<wpt lat="39.883266" lon="-0.520327"><ele>478</ele><time>2024-05-01T08:40:31.893Z</time><name>Senda Altomira</name></wpt>
<wpt lat="39.888519" lon="-0.515242"><ele>384</ele><time>2024-05-01T08:40:31.893Z</time><name>Subida Los Ángeles</name></wpt>
<wpt lat="39.891285" lon="-0.522838"><ele>412</ele><time>2024-05-01T08:40:31.893Z</time><name>Presa</name></wpt>
<wpt lat="39.878587" lon="-0.516046"><ele>444</ele><name>Senda BTT suave</name></wpt>
<trk>
  <name>2025- Jérica Nº5-4. Vía Verde+Martinete+ Bajadas zona Altomira+ Los Ángeles. - Wikiloc</name>
  <trkseg>
    <trkpt lat="39.912505" lon="-0.572462"><ele>528.984</ele><time>2024-04-28T06:18:45.249Z</time></trkpt>
    <trkpt lat="39.912471" lon="-0.571494"><ele>491.907</ele><time>2024-04-28T06:19:35.109Z</time></trkpt>
    <trkpt lat="39.911851" lon="-0.570663"><ele>483.717</ele><time>2024-04-28T06:20:03.137Z</time></trkpt>
    <trkpt lat="39.911348" lon="-0.570469"><ele>484.209</ele><time>2024-04-28T06:20:17.102Z</time></trkpt>
    <trkpt lat="39.910502" lon="-0.570519"><ele>478.859</ele><time>2024-04-28T06:20:34.128Z</time></trkpt>
    <trkpt lat="39.910214" lon="-0.570276"><ele>479.954</ele><time>2024-04-28T06:20:39.110Z</time></trkpt>
    <trkpt lat="39.909929" lon="-0.569134"><ele>475.767</ele><time>2024-04-28T06:20:48.114Z</time></trkpt>
    <trkpt lat="39.909996" lon="-0.566479"><ele>459.069</ele><time>2024-04-28T06:21:06.112Z</time></trkpt>
    <trkpt lat="39.908693" lon="-0.56137"><ele>446.714</ele><time>2024-04-28T06:22:03.102Z</time></trkpt>
    <trkpt lat="39.908347" lon="-0.560527"><ele>447.328</ele><time>2024-04-28T06:22:16.103Z</time></trkpt>
    <trkpt lat="39.907581" lon="-0.559352"><ele>446.721</ele><time>2024-04-28T06:22:39.101Z</time></trkpt>
    <trkpt lat="39.906893" lon="-0.558897"><ele>449.015</ele><time>2024-04-28T06:22:58.101Z</time></trkpt>
    <trkpt lat="39.906444" lon="-0.558922"><ele>451.891</ele><time>2024-04-28T06:23:12.105Z</time></trkpt>
    <trkpt lat="39.905901" lon="-0.559285"><ele>453.854</ele><time>2024-04-28T06:23:32.101Z</time></trkpt>
    <trkpt lat="39.905506" lon="-0.559346"><ele>458.556</ele><time>2024-04-28T06:23:46.104Z</time></trkpt>
    <trkpt lat="39.903998" lon="-0.560772"><ele>459.211</ele><time>2024-04-28T06:24:27.103Z</time></trkpt>
    <trkpt lat="39.903233" lon="-0.5611"><ele>456.609</ele><time>2024-04-28T06:24:41.103Z</time></trkpt>
    <trkpt lat="39.902352" lon="-0.561053"><ele>455.646</ele><time>2024-04-28T06:24:55.098Z</time></trkpt>
    <trkpt lat="39.901675" lon="-0.560675"><ele>454.641</ele><time>2024-04-28T06:25:06.132Z</time></trkpt>
    <trkpt lat="39.898167" lon="-0.557597"><ele>441.394</ele><time>2024-04-28T06:26:19.100Z</time></trkpt>
    <trkpt lat="39.893138" lon="-0.548643"><ele>431.626</ele><time>2024-04-28T06:28:58.098Z</time></trkpt>
    <trkpt lat="39.892278" lon="-0.548108"><ele>435.481</ele><time>2024-04-28T06:29:19.102Z</time></trkpt>
    <trkpt lat="39.890064" lon="-0.547761"><ele>438.865</ele><time>2024-04-28T06:30:09.105Z</time></trkpt>
    <trkpt lat="39.889162" lon="-0.547409"><ele>437.248</ele><time>2024-04-28T06:30:31.104Z</time></trkpt>
    <trkpt lat="39.888758" lon="-0.547095"><ele>436.182</ele><time>2024-04-28T06:30:42.108Z</time></trkpt>
    <trkpt lat="39.888402" lon="-0.546564"><ele>434.248</ele><time>2024-04-28T06:30:55.117Z</time></trkpt>
    <trkpt lat="39.887772" lon="-0.544939"><ele>430.543</ele><time>2024-04-28T06:31:25.105Z</time></trkpt>
    <trkpt lat="39.886069" lon="-0.543957"><ele>447.064</ele><time>2024-04-28T06:33:56.099Z</time></trkpt>
    <trkpt lat="39.88588" lon="-0.544289"><ele>449.01</ele><time>2024-04-28T06:34:12.104Z</time></trkpt>
    <trkpt lat="39.885577" lon="-0.544473"><ele>454.409</ele><time>2024-04-28T06:34:30.103Z</time></trkpt>
    <trkpt lat="39.884573" lon="-0.544006"><ele>463.485</ele><time>2024-04-28T06:35:24.109Z</time></trkpt>
    <trkpt lat="39.883984" lon="-0.542816"><ele>460.35</ele><time>2024-04-28T06:35:54.109Z</time></trkpt>
    <trkpt lat="39.883971" lon="-0.542271"><ele>456.183</ele><time>2024-04-28T06:36:12.108Z</time></trkpt>
    <trkpt lat="39.883305" lon="-0.542073"><ele>448.125</ele><time>2024-04-28T06:36:45.108Z</time></trkpt>
    <trkpt lat="39.883335" lon="-0.541701"><ele>448.47</ele><time>2024-04-28T06:37:02.108Z</time></trkpt>
    <trkpt lat="39.882703" lon="-0.541079"><ele>448.314</ele><time>2024-04-28T06:37:40.100Z</time></trkpt>
    <trkpt lat="39.882507" lon="-0.540236"><ele>454.087</ele><time>2024-04-28T06:38:08.108Z</time></trkpt>
    <trkpt lat="39.881654" lon="-0.539007"><ele>451.991</ele><time>2024-04-28T06:38:58.114Z</time></trkpt>
    <trkpt lat="39.881452" lon="-0.538973"><ele>446.887</ele><time>2024-04-28T06:39:07.109Z</time></trkpt>
    <trkpt lat="39.880958" lon="-0.539989"><ele>439.095</ele><time>2024-04-28T06:39:45.110Z</time></trkpt>
    <trkpt lat="39.880842" lon="-0.539787"><ele>438.349</ele><time>2024-04-28T06:39:58.101Z</time></trkpt>
    <trkpt lat="39.880914" lon="-0.539145"><ele>438.623</ele><time>2024-04-28T06:40:21.102Z</time></trkpt>
    <trkpt lat="39.879653" lon="-0.539264"><ele>457.309</ele><time>2024-04-28T06:41:24.113Z</time></trkpt>
    <trkpt lat="39.879085" lon="-0.539543"><ele>462.89</ele><time>2024-04-28T06:41:57.106Z</time></trkpt>
    <trkpt lat="39.878263" lon="-0.539548"><ele>463.835</ele><time>2024-04-28T06:42:25.116Z</time></trkpt>
    <trkpt lat="39.878193" lon="-0.539248"><ele>464.028</ele><time>2024-04-28T06:42:31.107Z</time></trkpt>
    <trkpt lat="39.879312" lon="-0.538148"><ele>465.67</ele><time>2024-04-28T06:43:19.105Z</time></trkpt>
    <trkpt lat="39.879014" lon="-0.537224"><ele>474.435</ele><time>2024-04-28T06:43:59.121Z</time></trkpt>
    <trkpt lat="39.878736" lon="-0.53725"><ele>476.079</ele><time>2024-04-28T06:44:12.102Z</time></trkpt>
    <trkpt lat="39.87764" lon="-0.537995"><ele>489.672</ele><time>2024-04-28T06:45:30.115Z</time></trkpt>
    <trkpt lat="39.877005" lon="-0.538253"><ele>497.926</ele><time>2024-04-28T06:46:27.122Z</time></trkpt>
    <trkpt lat="39.875584" lon="-0.53847"><ele>511.492</ele><time>2024-04-28T06:47:59.115Z</time></trkpt>
    <trkpt lat="39.874924" lon="-0.538813"><ele>507.056</ele><time>2024-04-28T06:48:21.104Z</time></trkpt>
    <trkpt lat="39.874387" lon="-0.538759"><ele>505.659</ele><time>2024-04-28T06:48:40.129Z</time></trkpt>
    <trkpt lat="39.874059" lon="-0.539445"><ele>503.614</ele><time>2024-04-28T06:49:00.116Z</time></trkpt>
    <trkpt lat="39.873823" lon="-0.540917"><ele>497.809</ele><time>2024-04-28T06:49:26.116Z</time></trkpt>
    <trkpt lat="39.873901" lon="-0.54124"><ele>496.566</ele><time>2024-04-28T06:49:31.105Z</time></trkpt>
    <trkpt lat="39.874326" lon="-0.541017"><ele>497.911</ele><time>2024-04-28T06:49:43.117Z</time></trkpt>
    <trkpt lat="39.874717" lon="-0.5411"><ele>505.414</ele><time>2024-04-28T06:49:57.107Z</time></trkpt>
    <trkpt lat="39.875458" lon="-0.542072"><ele>507.546</ele><time>2024-04-28T06:50:40.105Z</time></trkpt>
    <trkpt lat="39.875462" lon="-0.542794"><ele>512.991</ele><time>2024-04-28T06:51:03.137Z</time></trkpt>
    <trkpt lat="39.875724" lon="-0.543288"><ele>513.845</ele><time>2024-04-28T06:51:17.104Z</time></trkpt>
    <trkpt lat="39.876372" lon="-0.543157"><ele>520.978</ele><time>2024-04-28T06:51:41.112Z</time></trkpt>
    <trkpt lat="39.877037" lon="-0.54361"><ele>520.922</ele><time>2024-04-28T06:52:11.108Z</time></trkpt>
    <trkpt lat="39.877901" lon="-0.545358"><ele>532.328</ele><time>2024-04-28T06:53:20.104Z</time></trkpt>
    <trkpt lat="39.877465" lon="-0.547161"><ele>543.226</ele><time>2024-04-28T06:54:36.112Z</time></trkpt>
    <trkpt lat="39.876603" lon="-0.547904"><ele>544.247</ele><time>2024-04-28T06:55:22.121Z</time></trkpt>
    <trkpt lat="39.876712" lon="-0.549032"><ele>546.711</ele><time>2024-04-28T06:55:48.137Z</time></trkpt>
    <trkpt lat="39.876323" lon="-0.549642"><ele>547.609</ele><time>2024-04-28T06:56:11.114Z</time></trkpt>
    <trkpt lat="39.875684" lon="-0.549903"><ele>550.313</ele><time>2024-04-28T06:56:36.125Z</time></trkpt>
    <trkpt lat="39.875315" lon="-0.5503"><ele>552.228</ele><time>2024-04-28T06:56:48.142Z</time></trkpt>
    <trkpt lat="39.87526" lon="-0.550632"><ele>554.071</ele><time>2024-04-28T06:56:56.116Z</time></trkpt>
    <trkpt lat="39.875622" lon="-0.551268"><ele>558.133</ele><time>2024-04-28T06:57:11.149Z</time></trkpt>
    <trkpt lat="39.875588" lon="-0.551504"><ele>558.068</ele><time>2024-04-28T06:57:17.110Z</time></trkpt>
    <trkpt lat="39.873554" lon="-0.551239"><ele>602.592</ele><time>2024-04-28T07:00:48.106Z</time></trkpt>
    <trkpt lat="39.873998" lon="-0.550264"><ele>609.855</ele><time>2024-04-28T07:01:51.113Z</time></trkpt>
    <trkpt lat="39.873966" lon="-0.549319"><ele>612.139</ele><time>2024-04-28T07:02:29.122Z</time></trkpt>
    <trkpt lat="39.8744" lon="-0.548574"><ele>607.455</ele><time>2024-04-28T07:02:46.105Z</time></trkpt>
    <trkpt lat="39.875092" lon="-0.547791"><ele>603.294</ele><time>2024-04-28T07:03:15.108Z</time></trkpt>
    <trkpt lat="39.875301" lon="-0.547031"><ele>608.157</ele><time>2024-04-28T07:03:42.117Z</time></trkpt>
    <trkpt lat="39.875174" lon="-0.546922"><ele>608.122</ele><time>2024-04-28T07:03:54.122Z</time></trkpt>
    <trkpt lat="39.874269" lon="-0.547377"><ele>618.809</ele><time>2024-04-28T07:04:57.132Z</time></trkpt>
    <trkpt lat="39.874052" lon="-0.547308"><ele>623.16</ele><time>2024-04-28T07:05:13.119Z</time></trkpt>
    <trkpt lat="39.874367" lon="-0.545122"><ele>598.155</ele><time>2024-04-28T07:07:01.108Z</time></trkpt>
    <trkpt lat="39.874362" lon="-0.544627"><ele>590.428</ele><time>2024-04-28T07:07:12.120Z</time></trkpt>
    <trkpt lat="39.874213" lon="-0.544359"><ele>583.82</ele><time>2024-04-28T07:07:21.110Z</time></trkpt>
    <trkpt lat="39.874633" lon="-0.541712"><ele>515.495</ele><time>2024-04-28T07:08:35.118Z</time></trkpt>
    <trkpt lat="39.874547" lon="-0.541211"><ele>508.749</ele><time>2024-04-28T07:08:45.121Z</time></trkpt>
    <trkpt lat="39.874662" lon="-0.541039"><ele>504.922</ele><time>2024-04-28T07:08:52.137Z</time></trkpt>
    <trkpt lat="39.874296" lon="-0.54098"><ele>503.536</ele><time>2024-04-28T07:09:59.122Z</time></trkpt>
    <trkpt lat="39.873941" lon="-0.541206"><ele>504.282</ele><time>2024-04-28T07:10:09.112Z</time></trkpt>
    <trkpt lat="39.873843" lon="-0.541034"><ele>504.458</ele><time>2024-04-28T07:10:12.137Z</time></trkpt>
    <trkpt lat="39.873915" lon="-0.53993"><ele>502.552</ele><time>2024-04-28T07:10:32.126Z</time></trkpt>
    <trkpt lat="39.87433" lon="-0.538585"><ele>512.017</ele><time>2024-04-28T07:11:53.109Z</time></trkpt>
    <trkpt lat="39.874195" lon="-0.538405"><ele>511.409</ele><time>2024-04-28T07:11:57.121Z</time></trkpt>
    <trkpt lat="39.873641" lon="-0.538418"><ele>511.696</ele><time>2024-04-28T07:12:08.125Z</time></trkpt>
    <trkpt lat="39.873618" lon="-0.53818"><ele>512.211</ele><time>2024-04-28T07:12:12.117Z</time></trkpt>
    <trkpt lat="39.874138" lon="-0.537713"><ele>511.994</ele><time>2024-04-28T07:12:32.121Z</time></trkpt>
    <trkpt lat="39.874898" lon="-0.536612"><ele>509.466</ele><time>2024-04-28T07:13:03.130Z</time></trkpt>
    <trkpt lat="39.874962" lon="-0.536066"><ele>506.251</ele><time>2024-04-28T07:13:10.117Z</time></trkpt>
    <trkpt lat="39.875166" lon="-0.536047"><ele>504.645</ele><time>2024-04-28T07:13:13.120Z</time></trkpt>
    <trkpt lat="39.875917" lon="-0.536607"><ele>503.358</ele><time>2024-04-28T07:13:25.110Z</time></trkpt>
    <trkpt lat="39.876887" lon="-0.536763"><ele>499.872</ele><time>2024-04-28T07:13:35.118Z</time></trkpt>
    <trkpt lat="39.877806" lon="-0.536045"><ele>489.828</ele><time>2024-04-28T07:13:46.104Z</time></trkpt>
    <trkpt lat="39.878496" lon="-0.536017"><ele>482.656</ele><time>2024-04-28T07:13:54.124Z</time></trkpt>
    <trkpt lat="39.879168" lon="-0.535809"><ele>477.359</ele><time>2024-04-28T07:14:01.125Z</time></trkpt>
    <trkpt lat="39.880013" lon="-0.535113"><ele>468.514</ele><time>2024-04-28T07:14:10.111Z</time></trkpt>
    <trkpt lat="39.881272" lon="-0.534497"><ele>457.109</ele><time>2024-04-28T07:14:27.125Z</time></trkpt>
    <trkpt lat="39.882251" lon="-0.53587"><ele>450.546</ele><time>2024-04-28T07:15:06.105Z</time></trkpt>
    <trkpt lat="39.882483" lon="-0.535595"><ele>448.891</ele><time>2024-04-28T07:15:22.122Z</time></trkpt>
    <trkpt lat="39.882578" lon="-0.535793"><ele>448.294</ele><time>2024-04-28T07:15:28.122Z</time></trkpt>
    <trkpt lat="39.882476" lon="-0.536091"><ele>446.996</ele><time>2024-04-28T07:15:36.119Z</time></trkpt>
    <trkpt lat="39.882676" lon="-0.536273"><ele>445.871</ele><time>2024-04-28T07:15:42.122Z</time></trkpt>
    <trkpt lat="39.882987" lon="-0.536146"><ele>447.395</ele><time>2024-04-28T07:15:53.118Z</time></trkpt>
    <trkpt lat="39.883007" lon="-0.536568"><ele>445.478</ele><time>2024-04-28T07:16:05.120Z</time></trkpt>
    <trkpt lat="39.883172" lon="-0.536532"><ele>444.872</ele><time>2024-04-28T07:16:11.104Z</time></trkpt>
    <trkpt lat="39.883182" lon="-0.536715"><ele>443.088</ele><time>2024-04-28T07:16:17.113Z</time></trkpt>
    <trkpt lat="39.883301" lon="-0.536696"><ele>442.823</ele><time>2024-04-28T07:16:21.105Z</time></trkpt>
    <trkpt lat="39.883388" lon="-0.536407"><ele>442.583</ele><time>2024-04-28T07:16:29.120Z</time></trkpt>
    <trkpt lat="39.883649" lon="-0.536194"><ele>442.111</ele><time>2024-04-28T07:16:39.120Z</time></trkpt>
    <trkpt lat="39.883712" lon="-0.533036"><ele>437.709</ele><time>2024-04-28T07:18:37.108Z</time></trkpt>
    <trkpt lat="39.883876" lon="-0.531821"><ele>437.793</ele><time>2024-04-28T07:18:57.125Z</time></trkpt>
    <trkpt lat="39.884446" lon="-0.530094"><ele>439.038</ele><time>2024-04-28T07:19:29.122Z</time></trkpt>
    <trkpt lat="39.88391" lon="-0.528421"><ele>453.451</ele><time>2024-04-28T07:20:37.114Z</time></trkpt>
    <trkpt lat="39.88411" lon="-0.527797"><ele>454.073</ele><time>2024-04-28T07:21:04.109Z</time></trkpt>
    <trkpt lat="39.884071" lon="-0.527155"><ele>461.118</ele><time>2024-04-28T07:21:40.111Z</time></trkpt>
    <trkpt lat="39.883704" lon="-0.526937"><ele>466.472</ele><time>2024-04-28T07:22:09.119Z</time></trkpt>
    <trkpt lat="39.882574" lon="-0.525636"><ele>484.625</ele><time>2024-04-28T07:23:48.112Z</time></trkpt>
    <trkpt lat="39.882517" lon="-0.525076"><ele>487.419</ele><time>2024-04-28T07:24:10.111Z</time></trkpt>
    <trkpt lat="39.882892" lon="-0.52449"><ele>490.235</ele><time>2024-04-28T07:24:33.113Z</time></trkpt>
    <trkpt lat="39.882804" lon="-0.52349"><ele>490.488</ele><time>2024-04-28T07:25:08.112Z</time></trkpt>
    <trkpt lat="39.882412" lon="-0.523372"><ele>497.624</ele><time>2024-04-28T07:25:28.108Z</time></trkpt>
    <trkpt lat="39.881818" lon="-0.522873"><ele>500.626</ele><time>2024-04-28T07:25:58.106Z</time></trkpt>
    <trkpt lat="39.881248" lon="-0.52303"><ele>507.009</ele><time>2024-04-28T07:26:26.140Z</time></trkpt>
    <trkpt lat="39.880801" lon="-0.522756"><ele>511.219</ele><time>2024-04-28T07:26:49.111Z</time></trkpt>
    <trkpt lat="39.880006" lon="-0.523663"><ele>516.774</ele><time>2024-04-28T07:27:41.112Z</time></trkpt>
    <trkpt lat="39.879249" lon="-0.523777"><ele>516.037</ele><time>2024-04-28T07:27:58.124Z</time></trkpt>
    <trkpt lat="39.878116" lon="-0.522207"><ele>524.229</ele><time>2024-04-28T07:29:07.114Z</time></trkpt>
    <trkpt lat="39.877497" lon="-0.521907"><ele>529.974</ele><time>2024-04-28T07:29:26.112Z</time></trkpt>
    <trkpt lat="39.876803" lon="-0.520946"><ele>529.388</ele><time>2024-04-28T07:30:00.119Z</time></trkpt>
    <trkpt lat="39.876958" lon="-0.519511"><ele>530.171</ele><time>2024-04-28T07:30:27.107Z</time></trkpt>
    <trkpt lat="39.87749" lon="-0.518737"><ele>527.815</ele><time>2024-04-28T07:30:46.111Z</time></trkpt>
    <trkpt lat="39.879251" lon="-0.518977"><ele>520.661</ele><time>2024-04-28T07:31:11.134Z</time></trkpt>
    <trkpt lat="39.879924" lon="-0.519888"><ele>516.131</ele><time>2024-04-28T07:31:26.118Z</time></trkpt>
    <trkpt lat="39.880314" lon="-0.520175"><ele>514.561</ele><time>2024-04-28T07:31:33.127Z</time></trkpt>
    <trkpt lat="39.880982" lon="-0.519913"><ele>509.507</ele><time>2024-04-28T07:31:43.132Z</time></trkpt>
    <trkpt lat="39.881731" lon="-0.519983"><ele>503.609</ele><time>2024-04-28T07:31:52.129Z</time></trkpt>
    <trkpt lat="39.882844" lon="-0.520439"><ele>490.794</ele><time>2024-04-28T07:32:09.120Z</time></trkpt>
    <trkpt lat="39.883065" lon="-0.520203"><ele>487.259</ele><time>2024-04-28T07:32:16.129Z</time></trkpt>
    <trkpt lat="39.882808" lon="-0.519604"><ele>480.142</ele><time>2024-04-28T07:32:32.133Z</time></trkpt>
    <trkpt lat="39.881339" lon="-0.518371"><ele>452.624</ele><time>2024-04-28T07:33:25.122Z</time></trkpt>
    <trkpt lat="39.881305" lon="-0.51817"><ele>448.839</ele><time>2024-04-28T07:33:34.112Z</time></trkpt>
    <trkpt lat="39.881075" lon="-0.518031"><ele>455</ele><time>2024-04-28T07:34:20.129Z</time></trkpt>
    <trkpt lat="39.880795" lon="-0.517988"><ele>480</ele></trkpt>
    <trkpt lat="39.880778" lon="-0.517752"><ele>480</ele></trkpt>
    <trkpt lat="39.880943" lon="-0.517559"><ele>455</ele><time>2024-04-28T07:34:34.120Z</time></trkpt>
    <trkpt lat="39.88077" lon="-0.517216"><ele>456</ele><time>2024-04-28T07:34:54.127Z</time></trkpt>
    <trkpt lat="39.879753" lon="-0.516728"><ele>459</ele><time>2024-04-28T07:35:13.115Z</time></trkpt>
    <trkpt lat="39.878769" lon="-0.516261"><ele>444</ele></trkpt>
    <trkpt lat="39.87851" lon="-0.515955"><ele>444</ele></trkpt>
    <trkpt lat="39.878506" lon="-0.515665"><ele>433</ele></trkpt>
    <trkpt lat="39.878753" lon="-0.515247"><ele>433</ele></trkpt>
    <trkpt lat="39.878728" lon="-0.515102"><ele>433</ele></trkpt>
    <trkpt lat="39.878633" lon="-0.515016"><ele>433</ele></trkpt>
    <trkpt lat="39.878786" lon="-0.515016"><ele>433</ele></trkpt>
    <trkpt lat="39.878897" lon="-0.514877"><ele>422</ele></trkpt>
    <trkpt lat="39.878876" lon="-0.514737"><ele>422</ele></trkpt>
    <trkpt lat="39.878942" lon="-0.514641"><ele>422</ele></trkpt>
    <trkpt lat="39.878798" lon="-0.514534"><ele>422</ele></trkpt>
    <trkpt lat="39.87846" lon="-0.514104"><ele>404</ele></trkpt>
    <trkpt lat="39.878621" lon="-0.514126"><ele>404</ele></trkpt>
    <trkpt lat="39.878716" lon="-0.514233"><ele>422</ele></trkpt>
    <trkpt lat="39.878868" lon="-0.514212"><ele>422</ele></trkpt>
    <trkpt lat="39.879086" lon="-0.514292"><ele>422</ele></trkpt>
    <trkpt lat="39.879558" lon="-0.514614"><ele>403</ele></trkpt>
    <trkpt lat="39.879798" lon="-0.514069"><ele>391</ele><time>2024-04-28T07:35:36.127Z</time></trkpt>
    <trkpt lat="39.880066" lon="-0.51397"><ele>387</ele></trkpt>
    <trkpt lat="39.88028" lon="-0.51382"><ele>387</ele></trkpt>
    <trkpt lat="39.880461" lon="-0.514019"><ele>387</ele></trkpt>
    <trkpt lat="39.880918" lon="-0.514045"><ele>380</ele></trkpt>
    <trkpt lat="39.881112" lon="-0.51352"><ele>380</ele></trkpt>
    <trkpt lat="39.88163" lon="-0.513697"><ele>380</ele></trkpt>
    <trkpt lat="39.882618" lon="-0.513895"><ele>368</ele><time>2024-04-28T07:35:43.114Z</time></trkpt>
    <trkpt lat="39.882812" lon="-0.514078"><ele>368</ele></trkpt>
    <trkpt lat="39.883108" lon="-0.514614"><ele>382</ele><time>2024-04-28T07:36:10.127Z</time></trkpt>
    <trkpt lat="39.883261" lon="-0.514882"><ele>382</ele></trkpt>
    <trkpt lat="39.883565" lon="-0.515091"><ele>393</ele><time>2024-04-28T07:36:55.142Z</time></trkpt>
    <trkpt lat="39.884194" lon="-0.515617"><ele>383</ele><time>2024-04-28T07:37:24.113Z</time></trkpt>
    <trkpt lat="39.884413" lon="-0.515789"><ele>383</ele></trkpt>
    <trkpt lat="39.884701" lon="-0.515467"><ele>383</ele></trkpt>
    <trkpt lat="39.884944" lon="-0.515349"><ele>383</ele><time>2024-04-28T07:37:40.121Z</time></trkpt>
    <trkpt lat="39.88529" lon="-0.515424"><ele>377</ele></trkpt>
    <trkpt lat="39.885652" lon="-0.51537"><ele>377</ele><time>2024-04-28T07:37:52.111Z</time></trkpt>
    <trkpt lat="39.8858" lon="-0.515746"><ele>377</ele><time>2024-04-28T07:38:08.121Z</time></trkpt>
    <trkpt lat="39.886014" lon="-0.515746"><ele>380</ele></trkpt>
    <trkpt lat="39.886277" lon="-0.515563"><ele>380</ele><time>2024-04-28T07:38:46.120Z</time></trkpt>
    <trkpt lat="39.886937" lon="-0.51478"><ele>378</ele><time>2024-04-28T07:39:12.119Z</time></trkpt>
    <trkpt lat="39.88701" lon="-0.514995"><ele>378</ele></trkpt>
    <trkpt lat="39.887101" lon="-0.514963"><ele>378</ele><time>2024-04-28T07:39:29.117Z</time></trkpt>
    <trkpt lat="39.887337" lon="-0.514961"><ele>383.495</ele><time>2024-04-28T07:39:45.123Z</time></trkpt>
    <trkpt lat="39.888178" lon="-0.514881"><ele>381.791</ele><time>2024-04-28T07:39:58.115Z</time></trkpt>
    <trkpt lat="39.888386" lon="-0.5151"><ele>382.139</ele><time>2024-04-28T07:40:05.126Z</time></trkpt>
    <trkpt lat="39.888283" lon="-0.515726"><ele>386.101</ele><time>2024-04-28T07:40:23.118Z</time></trkpt>
    <trkpt lat="39.888537" lon="-0.51552"><ele>391.321</ele><time>2024-04-28T07:40:44.116Z</time></trkpt>
    <trkpt lat="39.888602" lon="-0.516613"><ele>396.809</ele><time>2024-04-28T07:41:40.121Z</time></trkpt>
    <trkpt lat="39.888734" lon="-0.516798"><ele>400.144</ele><time>2024-04-28T07:41:54.113Z</time></trkpt>
    <trkpt lat="39.888834" lon="-0.516355"><ele>405.859</ele><time>2024-04-28T07:42:25.117Z</time></trkpt>
    <trkpt lat="39.889222" lon="-0.515882"><ele>411.732</ele><time>2024-04-28T07:43:01.121Z</time></trkpt>
    <trkpt lat="39.890107" lon="-0.516659"><ele>418.224</ele><time>2024-04-28T07:43:57.155Z</time></trkpt>
    <trkpt lat="39.890341" lon="-0.517111"><ele>425.959</ele><time>2024-04-28T07:44:27.117Z</time></trkpt>
    <trkpt lat="39.890856" lon="-0.516692"><ele>429.213</ele><time>2024-04-28T07:45:04.120Z</time></trkpt>
    <trkpt lat="39.891012" lon="-0.517069"><ele>431.866</ele><time>2024-04-28T07:45:25.113Z</time></trkpt>
    <trkpt lat="39.891437" lon="-0.516893"><ele>438.48</ele><time>2024-04-28T07:45:56.124Z</time></trkpt>
    <trkpt lat="39.891905" lon="-0.517376"><ele>444.256</ele><time>2024-04-28T07:46:33.116Z</time></trkpt>
    <trkpt lat="39.892486" lon="-0.517693"><ele>446.032</ele><time>2024-04-28T07:46:51.124Z</time></trkpt>
    <trkpt lat="39.892687" lon="-0.518211"><ele>443.592</ele><time>2024-04-28T07:46:57.120Z</time></trkpt>
    <trkpt lat="39.89272" lon="-0.519052"><ele>436.211</ele><time>2024-04-28T07:47:05.133Z</time></trkpt>
    <trkpt lat="39.89311" lon="-0.519896"><ele>426.609</ele><time>2024-04-28T07:47:17.130Z</time></trkpt>
    <trkpt lat="39.891452" lon="-0.52127"><ele>414.494</ele><time>2024-04-28T07:47:51.120Z</time></trkpt>
    <trkpt lat="39.891429" lon="-0.522299"><ele>413.669</ele><time>2024-04-28T07:48:13.123Z</time></trkpt>
    <trkpt lat="39.889346" lon="-0.525342"><ele>407.512</ele><time>2024-04-28T07:49:27.115Z</time></trkpt>
    <trkpt lat="39.889961" lon="-0.526493"><ele>413.724</ele><time>2024-04-28T07:50:20.120Z</time></trkpt>
    <trkpt lat="39.890009" lon="-0.527495"><ele>414.169</ele><time>2024-04-28T07:50:38.123Z</time></trkpt>
    <trkpt lat="39.889185" lon="-0.527819"><ele>416.573</ele><time>2024-04-28T07:51:23.115Z</time></trkpt>
    <trkpt lat="39.887764" lon="-0.529123"><ele>422.676</ele><time>2024-04-28T07:52:28.125Z</time></trkpt>
    <trkpt lat="39.887401" lon="-0.529075"><ele>421.69</ele><time>2024-04-28T07:52:35.121Z</time></trkpt>
    <trkpt lat="39.887193" lon="-0.529399"><ele>422.976</ele><time>2024-04-28T07:52:45.158Z</time></trkpt>
    <trkpt lat="39.887662" lon="-0.530042"><ele>427.315</ele><time>2024-04-28T07:53:02.128Z</time></trkpt>
    <trkpt lat="39.888342" lon="-0.530322"><ele>425.365</ele><time>2024-04-28T07:53:14.112Z</time></trkpt>
    <trkpt lat="39.888424" lon="-0.53052"><ele>424.411</ele><time>2024-04-28T07:53:21.123Z</time></trkpt>
    <trkpt lat="39.887911" lon="-0.5309"><ele>419.609</ele><time>2024-04-28T07:53:43.121Z</time></trkpt>
    <trkpt lat="39.887082" lon="-0.533068"><ele>416.482</ele><time>2024-04-28T07:54:39.112Z</time></trkpt>
    <trkpt lat="39.886748" lon="-0.533313"><ele>414.877</ele><time>2024-04-28T07:54:51.133Z</time></trkpt>
    <trkpt lat="39.886015" lon="-0.533231"><ele>418.68</ele><time>2024-04-28T07:55:15.124Z</time></trkpt>
    <trkpt lat="39.885606" lon="-0.533567"><ele>421.082</ele><time>2024-04-28T07:55:31.113Z</time></trkpt>
    <trkpt lat="39.885019" lon="-0.536722"><ele>427.817</ele><time>2024-04-28T07:56:47.119Z</time></trkpt>
    <trkpt lat="39.88484" lon="-0.537062"><ele>428.441</ele><time>2024-04-28T07:56:57.110Z</time></trkpt>
    <trkpt lat="39.884497" lon="-0.537132"><ele>428.534</ele><time>2024-04-28T07:57:09.109Z</time></trkpt>
    <trkpt lat="39.884456" lon="-0.537037"><ele>435.088</ele><time>2024-04-28T07:57:12.125Z</time></trkpt>
    <trkpt lat="39.884504" lon="-0.53557"><ele>434.014</ele><time>2024-04-28T07:57:24.126Z</time></trkpt>
    <trkpt lat="39.884271" lon="-0.534948"><ele>433.025</ele><time>2024-04-28T07:57:30.122Z</time></trkpt>
    <trkpt lat="39.88409" lon="-0.534696"><ele>447.026</ele><time>2024-04-28T07:57:33.121Z</time></trkpt>
    <trkpt lat="39.883948" lon="-0.534879"><ele>447.008</ele><time>2024-04-28T07:57:37.112Z</time></trkpt>
    <trkpt lat="39.883691" lon="-0.534835"><ele>447.009</ele><time>2024-04-28T07:57:44.119Z</time></trkpt>
    <trkpt lat="39.883783" lon="-0.538183"><ele>446.043</ele><time>2024-04-28T07:57:54.120Z</time></trkpt>
    <trkpt lat="39.884204" lon="-0.540602"><ele>436.078</ele><time>2024-04-28T07:58:22.119Z</time></trkpt>
    <trkpt lat="39.88464" lon="-0.541393"><ele>440.031</ele><time>2024-04-28T07:58:28.118Z</time></trkpt>
    <trkpt lat="39.88578" lon="-0.542622"><ele>454.093</ele><time>2024-04-28T08:01:17.125Z</time></trkpt>
    <trkpt lat="39.888007" lon="-0.54402"><ele>429.088</ele><time>2024-04-28T08:04:36.126Z</time></trkpt>
    <trkpt lat="39.887677" lon="-0.54484"><ele>433.182</ele><time>2024-04-28T08:04:58.121Z</time></trkpt>
    <trkpt lat="39.888035" lon="-0.545842"><ele>440.795</ele><time>2024-04-28T08:05:29.117Z</time></trkpt>
    <trkpt lat="39.888934" lon="-0.547196"><ele>440.529</ele><time>2024-04-28T08:06:03.120Z</time></trkpt>
    <trkpt lat="39.889869" lon="-0.547725"><ele>441.475</ele><time>2024-04-28T08:06:29.121Z</time></trkpt>
    <trkpt lat="39.892059" lon="-0.547991"><ele>442.859</ele><time>2024-04-28T08:07:22.118Z</time></trkpt>
    <trkpt lat="39.893087" lon="-0.548528"><ele>443.003</ele><time>2024-04-28T08:07:47.113Z</time></trkpt>
    <trkpt lat="39.893849" lon="-0.549627"><ele>441.323</ele><time>2024-04-28T08:08:12.131Z</time></trkpt>
    <trkpt lat="39.898048" lon="-0.557351"><ele>444.109</ele><time>2024-04-28T08:11:09.123Z</time></trkpt>
    <trkpt lat="39.901618" lon="-0.56053"><ele>452.626</ele><time>2024-04-28T08:13:27.118Z</time></trkpt>
    <trkpt lat="39.902424" lon="-0.561011"><ele>455.581</ele><time>2024-04-28T08:13:55.134Z</time></trkpt>
    <trkpt lat="39.903315" lon="-0.561024"><ele>457.454</ele><time>2024-04-28T08:14:25.119Z</time></trkpt>
    <trkpt lat="39.904409" lon="-0.560429"><ele>457.176</ele><time>2024-04-28T08:15:03.114Z</time></trkpt>
    <trkpt lat="39.905526" lon="-0.559298"><ele>464.891</ele><time>2024-04-28T08:15:45.128Z</time></trkpt>
    <trkpt lat="39.906427" lon="-0.558921"><ele>462.265</ele><time>2024-04-28T08:16:05.152Z</time></trkpt>
    <trkpt lat="39.907023" lon="-0.558883"><ele>459.088</ele><time>2024-04-28T08:16:14.121Z</time></trkpt>
    <trkpt lat="39.907598" lon="-0.559326"><ele>456.412</ele><time>2024-04-28T08:16:24.119Z</time></trkpt>
    <trkpt lat="39.908424" lon="-0.560516"><ele>453.158</ele><time>2024-04-28T08:16:46.121Z</time></trkpt>
    <trkpt lat="39.908789" lon="-0.561523"><ele>450.882</ele><time>2024-04-28T08:17:03.119Z</time></trkpt>
    <trkpt lat="39.910032" lon="-0.566411"><ele>460.743</ele><time>2024-04-28T08:19:02.118Z</time></trkpt>
    <trkpt lat="39.910056" lon="-0.567162"><ele>462.317</ele><time>2024-04-28T08:19:24.133Z</time></trkpt>
    <trkpt lat="39.91063" lon="-0.567829"><ele>461.609</ele><time>2024-04-28T08:19:59.120Z</time></trkpt>
    <trkpt lat="39.911124" lon="-0.568704"><ele>465.239</ele><time>2024-04-28T08:20:38.115Z</time></trkpt>
    <trkpt lat="39.911206" lon="-0.569145"><ele>466.664</ele><time>2024-04-28T08:20:50.113Z</time></trkpt>
    <trkpt lat="39.912175" lon="-0.570116"><ele>491.857</ele><time>2024-04-28T08:21:46.125Z</time></trkpt>
    <trkpt lat="39.912635" lon="-0.571859"><ele>489.359</ele><time>2024-04-28T08:23:00.116Z</time></trkpt>
    <trkpt lat="39.912632" lon="-0.572607"><ele>497.734</ele><time>2024-04-28T08:23:24.128Z</time></trkpt>
  </trkseg>
</trk></gpx>
