<?xml version="1.0" encoding="UTF-8" standalone="no" ?>
<gpx creator="WTracks"
    xmlns:xsi="http://www.w3.org/2001/XMLSchema-instance" xmlns="http://www.topografix.com/GPX/1/1" version="1.1" xsi:schemaLocation="http://www.topografix.com/GPX/1/1 http://www.topografix.com/GPX/1/1/gpx.xsd">
<metadata>
  <name>Wikiloc - 2025 - Jérica Nº3-4. Circular a la Muela larga con muchas 'cosas', pero todas realizables, nivel medio.</name>
  <desc></desc>
  <author><name>WTracks</name></author>
  <link href='https://opoto.github.io/wtracks/'>
    <text>WTracks</text>
    <type>text/html</type>
  </link>
  <time>2026-06-01T11:27:51.863Z</time>
  <bounds minlat="39.855333" minlon="-0.671797" maxlat="39.899662" maxlon="-0.535154"/>
</metadata>
<trk>
  <trkseg>
    <trkpt lat="39.868715" lon="-0.590156"><ele>752.466</ele><time>2022-08-22T06:29:20Z</time></trkpt>
    <trkpt lat="39.868369" lon="-0.589034"><ele>746.629</ele><time>2022-08-22T06:28:49Z</time></trkpt>
    <trkpt lat="39.867357" lon="-0.588112"><ele>737.421</ele><time>2025-09-04T19:15:05.485Z</time></trkpt>
    <trkpt lat="39.869317" lon="-0.587618"><ele>710.709</ele><time>2022-08-22T06:27:22Z</time></trkpt>
    <trkpt lat="39.869366" lon="-0.587018"><ele>699.198</ele><time>2022-08-22T06:26:56Z</time></trkpt>
    <trkpt lat="39.868839" lon="-0.585043"><ele>679.319</ele><time>2022-08-22T06:26:26Z</time></trkpt>
    <trkpt lat="39.868427" lon="-0.584507"><ele>675.696</ele><time>2022-08-22T06:25:27Z</time></trkpt>
    <trkpt lat="39.867999" lon="-0.582769"><ele>653.147</ele><time>2022-08-22T06:24:43Z</time></trkpt>
    <trkpt lat="39.866862" lon="-0.580924"><ele>622.194</ele><time>2022-08-22T06:24:10Z</time></trkpt>
  </trkseg>
</trk></gpx>
