<?xml version="1.0" encoding="UTF-8" standalone="no" ?>
<gpx creator="WTracks"
    xmlns:xsi="http://www.w3.org/2001/XMLSchema-instance" xmlns="http://www.topografix.com/GPX/1/1" version="1.1" xsi:schemaLocation="http://www.topografix.com/GPX/1/1 http://www.topografix.com/GPX/1/1/gpx.xsd">
<metadata>
  <name>Wikiloc - 2025 Jérica Nº1-1-a) Sencilla y pistera. Senda De Caudiel, Novaliches, Pantano</name>
  <desc></desc>
  <author><name>WTracks</name></author>
  <link href='https://opoto.github.io/wtracks/'>
    <text>WTracks</text>
    <type>text/html</type>
  </link>
  <time>2026-06-01T10:56:50.312Z</time>
  <bounds minlat="39.860724" minlon="-0.690594" maxlat="39.949346" maxlon="-0.417309"/>
</metadata>
<trk>
  <trkseg>
    <trkpt lat="39.913615" lon="-0.548815"><ele>485.016</ele><time>2025-04-12T07:17:53Z</time></trkpt>
    <trkpt lat="39.913707" lon="-0.548692"><ele>485.676</ele><time>2025-04-12T07:19:08Z</time></trkpt>
    <trkpt lat="39.913598" lon="-0.548674"><ele>484.913</ele><time>2025-04-12T07:19:24Z</time></trkpt>
    <trkpt lat="39.913376" lon="-0.548003"><ele>484.709</ele><time>2025-04-12T07:26:57.999Z</time></trkpt>
    <trkpt lat="39.912525" lon="-0.547722"><ele>476.663</ele><time>2025-04-12T07:27:10.999Z</time></trkpt>
    <trkpt lat="39.911592" lon="-0.547622"><ele>477.441</ele><time>2025-04-12T07:27:29.999Z</time></trkpt>
    <trkpt lat="39.910686" lon="-0.547253"><ele>480.369</ele><time>2025-04-12T07:27:55.999Z</time></trkpt>
    <trkpt lat="39.909965" lon="-0.546855"><ele>480.156</ele><time>2025-04-12T07:28:10.999Z</time></trkpt>
    <trkpt lat="39.908821" lon="-0.545672"><ele>469.882</ele><time>2025-04-12T07:28:43.999Z</time></trkpt>
    <trkpt lat="39.908484" lon="-0.545789"><ele>465.899</ele><time>2025-04-12T07:28:51.999Z</time></trkpt>
    <trkpt lat="39.908256" lon="-0.546168"><ele>462.816</ele><time>2025-04-12T07:28:59.999Z</time></trkpt>
    <trkpt lat="39.907892" lon="-0.546331"><ele>466.621</ele><time>2025-04-12T07:29:08.999Z</time></trkpt>
    <trkpt lat="39.907892" lon="-0.548167"><ele>477.935</ele><time>2025-04-12T07:30:25.999Z</time></trkpt>
    <trkpt lat="39.907575" lon="-0.548742"><ele>489.141</ele><time>2025-04-12T07:30:59.999Z</time></trkpt>
    <trkpt lat="39.907932" lon="-0.54962"><ele>493.081</ele><time>2025-04-12T07:31:44.999Z</time></trkpt>
    <trkpt lat="39.907804" lon="-0.550212"><ele>502.909</ele><time>2025-04-12T07:32:13.999Z</time></trkpt>
  </trkseg>
</trk></gpx>
