<?xml version="1.0" encoding="UTF-8" standalone="no" ?>
<gpx creator="WTracks"
    xmlns:xsi="http://www.w3.org/2001/XMLSchema-instance" xmlns="http://www.topografix.com/GPX/1/1" version="1.1" xsi:schemaLocation="http://www.topografix.com/GPX/1/1 http://www.topografix.com/GPX/1/1/gpx.xsd">
<metadata>
  <name>Wikiloc - 2025- Jerica Nº5-1-a). Pistera. Salida por Navarza . Vuelta por pista hacia Paredes y Novaliches.</name>
  <desc></desc>
  <author><name>WTracks</name></author>
  <link href='https://opoto.github.io/wtracks/'>
    <text>WTracks</text>
    <type>text/html</type>
  </link>
  <time>2026-06-01T11:15:21.927Z</time>
  <bounds minlat="39.867851" minlon="-0.687847" maxlat="39.956465" maxlon="-0.414562"/>
</metadata>
<wpt lat="39.903395" lon="-0.554089"><ele>512.188</ele><name>Pinalejo</name></wpt>
<trk>
  <trkseg>
    <trkpt lat="39.906238" lon="-0.554281"><ele>497.039</ele><time>2024-02-26T15:47:35Z</time></trkpt>
    <trkpt lat="39.90558" lon="-0.55446"><ele>498.663</ele><time>2024-02-26T15:47:55Z</time></trkpt>
    <trkpt lat="39.905018" lon="-0.554113"><ele>503.95</ele><time>2024-02-26T15:48:22Z</time></trkpt>
    <trkpt lat="39.904399" lon="-0.553974"><ele>511.344</ele><time>2024-02-26T15:48:47Z</time></trkpt>
    <trkpt lat="39.903893" lon="-0.55413"><ele>511.638</ele><time>2024-02-26T15:48:55Z</time></trkpt>
    <trkpt lat="39.903395" lon="-0.554089"><ele>512.188</ele><time>2024-02-26T15:49:03Z</time></trkpt>
    <trkpt lat="39.902705" lon="-0.554609"><ele>506.054</ele><time>2024-02-26T15:49:12Z</time></trkpt>
    <trkpt lat="39.902368" lon="-0.554054"><ele>502.921</ele><time>2024-02-26T15:49:20Z</time></trkpt>
    <trkpt lat="39.902126" lon="-0.554562"><ele>498.529</ele><time>2024-02-26T15:49:32Z</time></trkpt>
    <trkpt lat="39.901457" lon="-0.554877"><ele>492.927</ele><time>2024-02-26T15:49:40Z</time></trkpt>
    <trkpt lat="39.900681" lon="-0.55435"><ele>488.668</ele><time>2024-02-26T15:49:53Z</time></trkpt>
    <trkpt lat="39.900144" lon="-0.552872"><ele>475.514</ele><time>2024-02-26T15:50:16Z</time></trkpt>
    <trkpt lat="39.899454" lon="-0.552251"><ele>468.109</ele><time>2024-02-26T15:50:28Z</time></trkpt>
    <trkpt lat="39.898831" lon="-0.552345"><ele>450.094</ele><time>2024-02-26T15:51:46Z</time></trkpt>
    <trkpt lat="39.897113" lon="-0.551966"><ele>442.958</ele><time>2024-02-26T15:53:54Z</time></trkpt>
  </trkseg>
</trk></gpx>
