<?xml version="1.0" encoding="UTF-8" standalone="no" ?>
<gpx creator="WTracks"
    xmlns:xsi="http://www.w3.org/2001/XMLSchema-instance" xmlns="http://www.topografix.com/GPX/1/1" version="1.1" xsi:schemaLocation="http://www.topografix.com/GPX/1/1 http://www.topografix.com/GPX/1/1/gpx.xsd">
<metadata>
  <name>Wikiloc - 2025 Jérica Nº1-3 b. 2 pasos por la Molinera, de Caudiel.</name>
  <desc></desc>
  <author><name>WTracks</name></author>
  <link href='https://opoto.github.io/wtracks/'>
    <text>WTracks</text>
    <type>text/html</type>
  </link>
  <time>2026-06-01T10:36:31.921Z</time>
  <bounds minlat="39.974293" minlon="-0.645747" maxlat="39.996423" maxlon="-0.577426"/>
</metadata>
<trk>
  <trkseg>
    <trkpt lat="39.981537" lon="-0.599679"><ele>809.262</ele><time>2025-01-25T08:19:26.095Z</time></trkpt>
    <trkpt lat="39.98159" lon="-0.600071"><ele>807.198</ele><time>2025-01-25T08:19:36.101Z</time></trkpt>
    <trkpt lat="39.983332" lon="-0.600915"><ele>810.415</ele><time>2025-01-25T08:20:31.091Z</time></trkpt>
    <trkpt lat="39.983838" lon="-0.601566"><ele>809.826</ele><time>2025-01-25T08:20:49.093Z</time></trkpt>
    <trkpt lat="39.984325" lon="-0.601744"><ele>812.709</ele><time>2025-01-25T08:21:06.085Z</time></trkpt>
    <trkpt lat="39.984742" lon="-0.601647"><ele>815.191</ele><time>2025-01-25T08:21:42.109Z</time></trkpt>
    <trkpt lat="39.984329" lon="-0.601495"><ele>815.495</ele><time>2025-01-25T08:22:11.100Z</time></trkpt>
    <trkpt lat="39.983602" lon="-0.600674"><ele>815.11</ele><time>2025-01-25T08:23:31.097Z</time></trkpt>
    <trkpt lat="39.982218" lon="-0.59998"><ele>819.077</ele><time>2025-01-25T08:24:20.105Z</time></trkpt>
    <trkpt lat="39.981549" lon="-0.599841"><ele>808.338</ele><time>2025-01-25T08:24:35.096Z</time></trkpt>
  </trkseg>
</trk></gpx>
